{"type":"FeatureCollection","features":[{"type":"Feature","geometry":{"type":"Point","coordinates":[92.83405,12.9585]},"properties":{"rid":"35_639","name":"North and Middle Andaman"}},{"type":"Feature","geometry":{"type":"Point","coordinates":[92.65924,11.803]},"properties":{"rid":"35_640","name":"South Andaman"}},{"type":"Feature","geometry":{"type":"Point","coordinates":[93.80428,6.986]},"properties":{"rid":"35_638","name":"Nicobars"}},{"type":"Feature","geometry":{"type":"Point","coordinates":[84.14311,18.6025]},"properties":{"rid":"37_519","name":"Srikakulam"}},{"type":"Feature","geometry":{"type":"Point","coordinates":[83.45904,18.2495]},"properties":{"rid":"37_521","name":"Vizianagaram"}},{"type":"Feature","geometry":{"type":"Point","coordinates":[83.27092,17.784]},"properties":{"rid":"37_520","name":"Visakhapatnam"}},{"type":"Feature","geometry":{"type":"Point","coordinates":[81.70574,16.9805]},"properties":{"rid":"37_505","name":"East Godavari"}},{"type":"Feature","geometry":{"type":"Point","coordinates":[81.58955,16.6435]},"properties":{"rid":"37_523","name":"West Godavari"}},{"type":"Feature","geometry":{"type":"Point","coordinates":[81.0268,16.1875]},"properties":{"rid":"37_510","name":"Krishna"}},{"type":"Feature","geometry":{"type":"Point","coordinates":[80.46908,16.2945]},"properties":{"rid":"37_506","name":"Guntur"}},{"type":"Feature","geometry":{"type":"Point","coordinates":[77.55247,15.549]},"properties":{"rid":"37_511","name":"Kurnool"}},{"type":"Feature","geometry":{"type":"Point","coordinates":[79.47627,15.642]},"properties":{"rid":"37_517","name":"Prakasam"}},{"type":"Feature","geometry":{"type":"Point","coordinates":[78.64746,14.6805]},"properties":{"rid":"37_504","name":"YSR"}},{"type":"Feature","geometry":{"type":"Point","coordinates":[79.66902,14.665]},"properties":{"rid":"37_515","name":"Sri Potti Sriramulu Nellore"}},{"type":"Feature","geometry":{"type":"Point","coordinates":[77.43623,14.726]},"properties":{"rid":"37_502","name":"Anantapuramu"}},{"type":"Feature","geometry":{"type":"Point","coordinates":[78.9946,13.1985]},"properties":{"rid":"37_503","name":"Chittoor"}},{"type":"Feature","geometry":{"type":"Point","coordinates":[79.83978,13.7745]},"properties":{"rid":"37_752","name":"Tirupati"}},{"type":"Feature","geometry":{"type":"Point","coordinates":[78.87672,13.9095]},"properties":{"rid":"37_753","name":"Annamayya"}},{"type":"Feature","geometry":{"type":"Point","coordinates":[77.97024,14.167]},"properties":{"rid":"37_754","name":"Sri Sathya Sai"}},{"type":"Feature","geometry":{"type":"Point","coordinates":[80.39035,15.94]},"properties":{"rid":"37_750","name":"Bapatla"}},{"type":"Feature","geometry":{"type":"Point","coordinates":[83.4606,18.718]},"properties":{"rid":"37_743","name":"Parvathipuram Manyam"}},{"type":"Feature","geometry":{"type":"Point","coordinates":[81.08156,17.0105]},"properties":{"rid":"37_748","name":"Eluru"}},{"type":"Feature","geometry":{"type":"Point","coordinates":[82.23751,17.906]},"properties":{"rid":"37_745","name":"Alluri Sitharama Raju"}},{"type":"Feature","geometry":{"type":"Point","coordinates":[82.08497,16.653]},"properties":{"rid":"37_747","name":"Konaseema"}},{"type":"Feature","geometry":{"type":"Point","coordinates":[82.18942,17.113]},"properties":{"rid":"37_746","name":"Kakinada"}},{"type":"Feature","geometry":{"type":"Point","coordinates":[82.75365,17.6585]},"properties":{"rid":"37_744","name":"Anakapalli"}},{"type":"Feature","geometry":{"type":"Point","coordinates":[78.41207,15.5125]},"properties":{"rid":"37_755","name":"Nandyal"}},{"type":"Feature","geometry":{"type":"Point","coordinates":[80.29245,16.811]},"properties":{"rid":"37_749","name":"NTR"}},{"type":"Feature","geometry":{"type":"Point","coordinates":[79.70443,16.3465]},"properties":{"rid":"37_751","name":"Palnadu"}},{"type":"Feature","geometry":{"type":"Point","coordinates":[94.0957,28.248]},"properties":{"rid":"12_249","name":"Upper Subansiri"}},{"type":"Feature","geometry":{"type":"Point","coordinates":[96.84188,28.03]},"properties":{"rid":"12_260","name":"Anjaw"}},{"type":"Feature","geometry":{"type":"Point","coordinates":[96.06717,27.2785]},"properties":{"rid":"12_253","name":"Changlang"}},{"type":"Feature","geometry":{"type":"Point","coordinates":[91.94827,27.6525]},"properties":{"rid":"12_245","name":"Tawang"}},{"type":"Feature","geometry":{"type":"Point","coordinates":[93.63918,27.3105]},"properties":{"rid":"12_248","name":"Papum Pare"}},{"type":"Feature","geometry":{"type":"Point","coordinates":[95.50934,27.036]},"properties":{"rid":"12_254","name":"Tirap"}},{"type":"Feature","geometry":{"type":"Point","coordinates":[95.41484,28.086]},"properties":{"rid":"12_251","name":"East Siang"}},{"type":"Feature","geometry":{"type":"Point","coordinates":[96.1947,27.9675]},"properties":{"rid":"12_259","name":"Lohit"}},{"type":"Feature","geometry":{"type":"Point","coordinates":[93.14554,28.017]},"properties":{"rid":"12_256","name":"Kurung Kumey"}},{"type":"Feature","geometry":{"type":"Point","coordinates":[93.82833,27.581]},"properties":{"rid":"12_255","name":"Lower Subansiri"}},{"type":"Feature","geometry":{"type":"Point","coordinates":[92.9539,27.5425]},"properties":{"rid":"12_247","name":"East Kameng"}},{"type":"Feature","geometry":{"type":"Point","coordinates":[92.43798,27.3385]},"properties":{"rid":"12_246","name":"West Kameng"}},{"type":"Feature","geometry":{"type":"Point","coordinates":[93.78426,27.9665]},"properties":{"rid":"12_763","name":"Kra Daadi"}},{"type":"Feature","geometry":{"type":"Point","coordinates":[96.01692,27.701]},"properties":{"rid":"12_762","name":"Namsai"}},{"type":"Feature","geometry":{"type":"Point","coordinates":[95.32451,26.8885]},"properties":{"rid":"12_761","name":"Longding"}},{"type":"Feature","geometry":{"type":"Point","coordinates":[95.03767,28.7245]},"properties":{"rid":"12_252","name":"Upper Siang"}},{"type":"Feature","geometry":{"type":"Point","coordinates":[94.56119,27.8075]},"properties":{"rid":"12_779","name":"Lower Siang"}},{"type":"Feature","geometry":{"type":"Point","coordinates":[95.93817,28.862]},"properties":{"rid":"12_257","name":"Upper Dibang Valley"}},{"type":"Feature","geometry":{"type":"Point","coordinates":[95.85273,28.176]},"properties":{"rid":"12_258","name":"Lower Dibang Valley"}},{"type":"Feature","geometry":{"type":"Point","coordinates":[94.81771,28.479]},"properties":{"rid":"12_764","name":"Siang"}},{"type":"Feature","geometry":{"type":"Point","coordinates":[94.24138,28.671]},"properties":{"rid":"12_785","name":"Shi Yomi"}},{"type":"Feature","geometry":{"type":"Point","coordinates":[93.14001,27.158]},"properties":{"rid":"12_783","name":"Pakke Kessang"}},{"type":"Feature","geometry":{"type":"Point","coordinates":[94.56232,28.193]},"properties":{"rid":"12_250","name":"West Siang"}},{"type":"Feature","geometry":{"type":"Point","coordinates":[94.74605,27.926]},"properties":{"rid":"12_784","name":"Lepa Rada"}},{"type":"Feature","geometry":{"type":"Point","coordinates":[94.12131,27.733]},"properties":{"rid":"12_778","name":"Kamle"}},{"type":"Feature","geometry":{"type":"Point","coordinates":[95.55081,27.604]},"properties":{"rid":"18_309","name":"Tinsukia"}},{"type":"Feature","geometry":{"type":"Point","coordinates":[94.73602,27.5995]},"properties":{"rid":"18_308","name":"Dhemaji"}},{"type":"Feature","geometry":{"type":"Point","coordinates":[94.98107,27.4055]},"properties":{"rid":"18_310","name":"Dibrugarh"}},{"type":"Feature","geometry":{"type":"Point","coordinates":[94.24159,27.237]},"properties":{"rid":"18_307","name":"Lakhimpur"}},{"type":"Feature","geometry":{"type":"Point","coordinates":[94.63457,27.0015]},"properties":{"rid":"18_311","name":"Sivasagar"}},{"type":"Feature","geometry":{"type":"Point","coordinates":[94.27968,26.654]},"properties":{"rid":"18_312","name":"Jorhat"}},{"type":"Feature","geometry":{"type":"Point","coordinates":[92.69768,26.78]},"properties":{"rid":"18_306","name":"Sonitpur"}},{"type":"Feature","geometry":{"type":"Point","coordinates":[94.02405,26.3615]},"properties":{"rid":"18_313","name":"Golaghat"}},{"type":"Feature","geometry":{"type":"Point","coordinates":[92.02668,26.754]},"properties":{"rid":"18_326","name":"Udalguri"}},{"type":"Feature","geometry":{"type":"Point","coordinates":[90.62539,26.665]},"properties":{"rid":"18_320","name":"Chirang"}},{"type":"Feature","geometry":{"type":"Point","coordinates":[91.31854,26.6635]},"properties":{"rid":"18_324","name":"Baksa"}},{"type":"Feature","geometry":{"type":"Point","coordinates":[92.75432,26.334]},"properties":{"rid":"18_305","name":"Nagaon"}},{"type":"Feature","geometry":{"type":"Point","coordinates":[90.12823,26.4945]},"properties":{"rid":"18_300","name":"Kokrajhar"}},{"type":"Feature","geometry":{"type":"Point","coordinates":[92.02761,26.4475]},"properties":{"rid":"18_325","name":"Darrang"}},{"type":"Feature","geometry":{"type":"Point","coordinates":[91.04273,26.386]},"properties":{"rid":"18_303","name":"Barpeta"}},{"type":"Feature","geometry":{"type":"Point","coordinates":[91.39675,26.3895]},"properties":{"rid":"18_323","name":"Nalbari"}},{"type":"Feature","geometry":{"type":"Point","coordinates":[92.30213,26.306]},"properties":{"rid":"18_304","name":"Morigaon"}},{"type":"Feature","geometry":{"type":"Point","coordinates":[91.28043,26.12]},"properties":{"rid":"18_321","name":"Kamrup"}},{"type":"Feature","geometry":{"type":"Point","coordinates":[90.62057,26.346]},"properties":{"rid":"18_319","name":"Bongaigaon"}},{"type":"Feature","geometry":{"type":"Point","coordinates":[89.85773,26.1315]},"properties":{"rid":"18_301","name":"Dhubri"}},{"type":"Feature","geometry":{"type":"Point","coordinates":[91.86816,26.1345]},"properties":{"rid":"18_322","name":"Kamrup Metropolitan"}},{"type":"Feature","geometry":{"type":"Point","coordinates":[90.63182,26.029]},"properties":{"rid":"18_302","name":"Goalpara"}},{"type":"Feature","geometry":{"type":"Point","coordinates":[93.07958,25.399]},"properties":{"rid":"18_315","name":"Dima Hasao"}},{"type":"Feature","geometry":{"type":"Point","coordinates":[92.87471,24.732]},"properties":{"rid":"18_316","name":"Cachar"}},{"type":"Feature","geometry":{"type":"Point","coordinates":[92.37406,24.6055]},"properties":{"rid":"18_317","name":"Karimganj"}},{"type":"Feature","geometry":{"type":"Point","coordinates":[92.63188,24.506]},"properties":{"rid":"18_318","name":"Hailakandi"}},{"type":"Feature","geometry":{"type":"Point","coordinates":[95.07414,27.0795]},"properties":{"rid":"18_755","name":"Charaideo"}},{"type":"Feature","geometry":{"type":"Point","coordinates":[94.35483,27.038]},"properties":{"rid":"18_760","name":"Majuli"}},{"type":"Feature","geometry":{"type":"Point","coordinates":[93.375,26.805]},"properties":{"rid":"18_756","name":"Biswanath"}},{"type":"Feature","geometry":{"type":"Point","coordinates":[92.98316,25.932]},"properties":{"rid":"18_757","name":"Hojai"}},{"type":"Feature","geometry":{"type":"Point","coordinates":[89.89732,25.8]},"properties":{"rid":"18_758","name":"South Salmara Mankachar"}},{"type":"Feature","geometry":{"type":"Point","coordinates":[93.42592,26.1075]},"properties":{"rid":"18_314","name":"Karbi Anglong"}},{"type":"Feature","geometry":{"type":"Point","coordinates":[92.58961,25.8345]},"properties":{"rid":"18_759","name":"West Karbi Anglong"}},{"type":"Feature","geometry":{"type":"Point","coordinates":[84.33439,27.0585]},"properties":{"rid":"10_203","name":"West Champaran"}},{"type":"Feature","geometry":{"type":"Point","coordinates":[84.8926,26.625]},"properties":{"rid":"10_204","name":"East Champaran"}},{"type":"Feature","geometry":{"type":"Point","coordinates":[85.5952,26.571]},"properties":{"rid":"10_206","name":"Sitamarhi"}},{"type":"Feature","geometry":{"type":"Point","coordinates":[85.2739,26.4975]},"properties":{"rid":"10_205","name":"Sheohar"}},{"type":"Feature","geometry":{"type":"Point","coordinates":[84.36007,26.422]},"properties":{"rid":"10_217","name":"Gopalganj"}},{"type":"Feature","geometry":{"type":"Point","coordinates":[85.94144,25.7605]},"properties":{"rid":"10_221","name":"Samastipur"}},{"type":"Feature","geometry":{"type":"Point","coordinates":[87.65216,25.568]},"properties":{"rid":"10_212","name":"Katihar"}},{"type":"Feature","geometry":{"type":"Point","coordinates":[86.62794,25.496]},"properties":{"rid":"10_223","name":"Khagaria"}},{"type":"Feature","geometry":{"type":"Point","coordinates":[84.56406,25.46]},"properties":{"rid":"10_231","name":"Bhojpur"}},{"type":"Feature","geometry":{"type":"Point","coordinates":[84.11169,25.503]},"properties":{"rid":"10_232","name":"Buxar"}},{"type":"Feature","geometry":{"type":"Point","coordinates":[86.03529,26.068]},"properties":{"rid":"10_215","name":"Darbhanga"}},{"type":"Feature","geometry":{"type":"Point","coordinates":[86.60848,25.8275]},"properties":{"rid":"10_214","name":"Saharsa"}},{"type":"Feature","geometry":{"type":"Point","coordinates":[83.58758,24.9865]},"properties":{"rid":"10_233","name":"Kaimur"}},{"type":"Feature","geometry":{"type":"Point","coordinates":[84.01602,24.935]},"properties":{"rid":"10_234","name":"Rohtas"}},{"type":"Feature","geometry":{"type":"Point","coordinates":[86.30451,24.7565]},"properties":{"rid":"10_238","name":"Jamui"}},{"type":"Feature","geometry":{"type":"Point","coordinates":[86.81519,24.8145]},"properties":{"rid":"10_225","name":"Banka"}},{"type":"Feature","geometry":{"type":"Point","coordinates":[85.51591,24.814]},"properties":{"rid":"10_237","name":"Nawada"}},{"type":"Feature","geometry":{"type":"Point","coordinates":[84.99039,24.6775]},"properties":{"rid":"10_236","name":"Gaya"}},{"type":"Feature","geometry":{"type":"Point","coordinates":[86.51837,25.2065]},"properties":{"rid":"10_226","name":"Munger"}},{"type":"Feature","geometry":{"type":"Point","coordinates":[85.39311,25.774]},"properties":{"rid":"10_220","name":"Vaishali"}},{"type":"Feature","geometry":{"type":"Point","coordinates":[86.11396,25.4875]},"properties":{"rid":"10_222","name":"Begusarai"}},{"type":"Feature","geometry":{"type":"Point","coordinates":[87.15634,25.303]},"properties":{"rid":"10_224","name":"Bhagalpur"}},{"type":"Feature","geometry":{"type":"Point","coordinates":[86.17217,25.162]},"properties":{"rid":"10_227","name":"Lakhisarai"}},{"type":"Feature","geometry":{"type":"Point","coordinates":[85.81056,25.12]},"properties":{"rid":"10_228","name":"Sheikhpura"}},{"type":"Feature","geometry":{"type":"Point","coordinates":[84.66178,25.181]},"properties":{"rid":"10_240","name":"Arwal"}},{"type":"Feature","geometry":{"type":"Point","coordinates":[85.01043,25.131]},"properties":{"rid":"10_239","name":"Jehanabad"}},{"type":"Feature","geometry":{"type":"Point","coordinates":[85.42499,25.206]},"properties":{"rid":"10_229","name":"Nalanda"}},{"type":"Feature","geometry":{"type":"Point","coordinates":[85.18284,25.473]},"properties":{"rid":"10_230","name":"Patna"}},{"type":"Feature","geometry":{"type":"Point","coordinates":[84.77611,25.9175]},"properties":{"rid":"10_219","name":"Saran"}},{"type":"Feature","geometry":{"type":"Point","coordinates":[84.38654,26.115]},"properties":{"rid":"10_218","name":"Siwan"}},{"type":"Feature","geometry":{"type":"Point","coordinates":[85.31468,26.17]},"properties":{"rid":"10_216","name":"Muzaffarpur"}},{"type":"Feature","geometry":{"type":"Point","coordinates":[86.94125,25.7965]},"properties":{"rid":"10_213","name":"Madhepura"}},{"type":"Feature","geometry":{"type":"Point","coordinates":[87.37433,26.2475]},"properties":{"rid":"10_209","name":"Araria"}},{"type":"Feature","geometry":{"type":"Point","coordinates":[86.79934,26.2605]},"properties":{"rid":"10_208","name":"Supaul"}},{"type":"Feature","geometry":{"type":"Point","coordinates":[86.2159,26.3445]},"properties":{"rid":"10_207","name":"Madhubani"}},{"type":"Feature","geometry":{"type":"Point","coordinates":[87.38663,25.767]},"properties":{"rid":"10_211","name":"Purnia"}},{"type":"Feature","geometry":{"type":"Point","coordinates":[87.94127,26.3065]},"properties":{"rid":"10_210","name":"Kishanganj"}},{"type":"Feature","geometry":{"type":"Point","coordinates":[84.41172,24.819]},"properties":{"rid":"10_235","name":"Aurangabad"}},{"type":"Feature","geometry":{"type":"Point","coordinates":[76.78832,30.72]},"properties":{"rid":"04_55","name":"Chandigarh"}},{"type":"Feature","geometry":{"type":"Point","coordinates":[82.48668,21.1875]},"properties":{"rid":"22_411","name":"Mahasamund"}},{"type":"Feature","geometry":{"type":"Point","coordinates":[81.00279,20.134]},"properties":{"rid":"22_413","name":"Uttar Bastar Kanker"}},{"type":"Feature","geometry":{"type":"Point","coordinates":[81.10975,19.593]},"properties":{"rid":"22_415","name":"Narayanpur"}},{"type":"Feature","geometry":{"type":"Point","coordinates":[81.40166,18.875]},"properties":{"rid":"22_416","name":"Dakshin Bastar Dantewada"}},{"type":"Feature","geometry":{"type":"Point","coordinates":[81.85686,19.0815]},"properties":{"rid":"22_414","name":"Bastar"}},{"type":"Feature","geometry":{"type":"Point","coordinates":[81.72466,19.7195]},"properties":{"rid":"22_722","name":"Kondagaon"}},{"type":"Feature","geometry":{"type":"Point","coordinates":[82.25465,20.4295]},"properties":{"rid":"22_720","name":"Gariaband"}},{"type":"Feature","geometry":{"type":"Point","coordinates":[81.82267,21.279]},"properties":{"rid":"22_410","name":"Raipur"}},{"type":"Feature","geometry":{"type":"Point","coordinates":[81.40104,21.1865]},"properties":{"rid":"22_409","name":"Durg"}},{"type":"Feature","geometry":{"type":"Point","coordinates":[81.7221,20.541]},"properties":{"rid":"22_412","name":"Dhamtari"}},{"type":"Feature","geometry":{"type":"Point","coordinates":[81.15966,20.7375]},"properties":{"rid":"22_719","name":"Balod"}},{"type":"Feature","geometry":{"type":"Point","coordinates":[81.24586,22.1175]},"properties":{"rid":"22_407","name":"Kabeerdham"}},{"type":"Feature","geometry":{"type":"Point","coordinates":[82.66567,22.0255]},"properties":{"rid":"22_405","name":"Janjgir Champa"}},{"type":"Feature","geometry":{"type":"Point","coordinates":[81.43179,21.671]},"properties":{"rid":"22_718","name":"Bametara"}},{"type":"Feature","geometry":{"type":"Point","coordinates":[80.70817,20.969]},"properties":{"rid":"22_408","name":"Rajnandgaon"}},{"type":"Feature","geometry":{"type":"Point","coordinates":[82.43501,21.577]},"properties":{"rid":"22_721","name":"Baloda Bazar"}},{"type":"Feature","geometry":{"type":"Point","coordinates":[81.65199,22.266]},"properties":{"rid":"22_717","name":"Mungeli"}},{"type":"Feature","geometry":{"type":"Point","coordinates":[80.74554,18.7795]},"properties":{"rid":"22_417","name":"Bijapur"}},{"type":"Feature","geometry":{"type":"Point","coordinates":[83.27955,22.0605]},"properties":{"rid":"22_403","name":"Raigarh"}},{"type":"Feature","geometry":{"type":"Point","coordinates":[82.06143,22.385]},"properties":{"rid":"22_406","name":"Bilaspur"}},{"type":"Feature","geometry":{"type":"Point","coordinates":[81.29057,18.263]},"properties":{"rid":"22_723","name":"Sukma"}},{"type":"Feature","geometry":{"type":"Point","coordinates":[82.30834,23.4405]},"properties":{"rid":"22_400","name":"Koriya"}},{"type":"Feature","geometry":{"type":"Point","coordinates":[83.96486,22.771]},"properties":{"rid":"22_402","name":"Jashpur"}},{"type":"Feature","geometry":{"type":"Point","coordinates":[82.61951,22.507]},"properties":{"rid":"22_404","name":"Korba"}},{"type":"Feature","geometry":{"type":"Point","coordinates":[82.95962,23.366]},"properties":{"rid":"22_715","name":"Surajpur"}},{"type":"Feature","geometry":{"type":"Point","coordinates":[83.17713,22.97]},"properties":{"rid":"22_401","name":"Surguja"}},{"type":"Feature","geometry":{"type":"Point","coordinates":[83.48142,23.6425]},"properties":{"rid":"22_716","name":"Balrampur"}},{"type":"Feature","geometry":{"type":"Point","coordinates":[77.12294,28.6455]},"properties":{"rid":"07_9000","name":"Delhi"}},{"type":"Feature","geometry":{"type":"Point","coordinates":[73.01347,20.2265]},"properties":{"rid":"26_496","name":"Dadra and Nagar Haveli"}},{"type":"Feature","geometry":{"type":"Point","coordinates":[72.85411,20.417]},"properties":{"rid":"26_495","name":"Daman"}},{"type":"Feature","geometry":{"type":"Point","coordinates":[70.90622,20.713]},"properties":{"rid":"26_494","name":"Diu"}},{"type":"Feature","geometry":{"type":"Point","coordinates":[73.99404,15.5865]},"properties":{"rid":"30_585","name":"North Goa"}},{"type":"Feature","geometry":{"type":"Point","coordinates":[74.10167,15.233]},"properties":{"rid":"30_586","name":"South Goa"}},{"type":"Feature","geometry":{"type":"Point","coordinates":[73.14425,20.43]},"properties":{"rid":"24_491","name":"Valsad"}},{"type":"Feature","geometry":{"type":"Point","coordinates":[71.27796,21.4185]},"properties":{"rid":"24_480","name":"Amreli"}},{"type":"Feature","geometry":{"type":"Point","coordinates":[73.70473,20.7775]},"properties":{"rid":"24_489","name":"Dang"}},{"type":"Feature","geometry":{"type":"Point","coordinates":[73.2979,22.303]},"properties":{"rid":"24_486","name":"Vadodara"}},{"type":"Feature","geometry":{"type":"Point","coordinates":[72.89252,21.837]},"properties":{"rid":"24_488","name":"Bharuch"}},{"type":"Feature","geometry":{"type":"Point","coordinates":[69.82348,21.615]},"properties":{"rid":"24_478","name":"Porbandar"}},{"type":"Feature","geometry":{"type":"Point","coordinates":[73.64786,21.735]},"properties":{"rid":"24_487","name":"Narmada"}},{"type":"Feature","geometry":{"type":"Point","coordinates":[72.95984,21.176]},"properties":{"rid":"24_492","name":"Surat"}},{"type":"Feature","geometry":{"type":"Point","coordinates":[73.55556,21.1915]},"properties":{"rid":"24_493","name":"Tapi"}},{"type":"Feature","geometry":{"type":"Point","coordinates":[71.63929,22.032]},"properties":{"rid":"24_726","name":"Botad"}},{"type":"Feature","geometry":{"type":"Point","coordinates":[73.81246,22.2135]},"properties":{"rid":"24_731","name":"Chhota Udaipur"}},{"type":"Feature","geometry":{"type":"Point","coordinates":[70.69312,20.978]},"properties":{"rid":"24_729","name":"Gir Somnath"}},{"type":"Feature","geometry":{"type":"Point","coordinates":[71.03339,22.077]},"properties":{"rid":"24_476","name":"Rajkot"}},{"type":"Feature","geometry":{"type":"Point","coordinates":[71.926,21.592]},"properties":{"rid":"24_481","name":"Bhavnagar"}},{"type":"Feature","geometry":{"type":"Point","coordinates":[70.42208,21.3385]},"properties":{"rid":"24_479","name":"Junagadh"}},{"type":"Feature","geometry":{"type":"Point","coordinates":[70.1077,22.3635]},"properties":{"rid":"24_477","name":"Jamnagar"}},{"type":"Feature","geometry":{"type":"Point","coordinates":[69.40855,22.1705]},"properties":{"rid":"24_728","name":"Devbhumi Dwarka"}},{"type":"Feature","geometry":{"type":"Point","coordinates":[73.01824,20.852]},"properties":{"rid":"24_490","name":"Navsari"}},{"type":"Feature","geometry":{"type":"Point","coordinates":[72.15145,24.2875]},"properties":{"rid":"24_469","name":"Banaskantha"}},{"type":"Feature","geometry":{"type":"Point","coordinates":[71.69393,23.7835]},"properties":{"rid":"24_470","name":"Patan"}},{"type":"Feature","geometry":{"type":"Point","coordinates":[72.46969,23.602]},"properties":{"rid":"24_471","name":"Mehsana"}},{"type":"Feature","geometry":{"type":"Point","coordinates":[72.67791,23.2655]},"properties":{"rid":"24_473","name":"Gandhinagar"}},{"type":"Feature","geometry":{"type":"Point","coordinates":[72.28852,22.7035]},"properties":{"rid":"24_474","name":"Ahmedabad"}},{"type":"Feature","geometry":{"type":"Point","coordinates":[73.61966,22.703]},"properties":{"rid":"24_484","name":"Panchmahal"}},{"type":"Feature","geometry":{"type":"Point","coordinates":[74.13142,22.9025]},"properties":{"rid":"24_485","name":"Dahod"}},{"type":"Feature","geometry":{"type":"Point","coordinates":[73.40933,23.528]},"properties":{"rid":"24_725","name":"Aravalli"}},{"type":"Feature","geometry":{"type":"Point","coordinates":[73.66758,23.186]},"properties":{"rid":"24_730","name":"Mahisagar"}},{"type":"Feature","geometry":{"type":"Point","coordinates":[73.04938,23.871]},"properties":{"rid":"24_472","name":"Sabarkantha"}},{"type":"Feature","geometry":{"type":"Point","coordinates":[69.63262,23.7475]},"properties":{"rid":"24_468","name":"Kutch"}},{"type":"Feature","geometry":{"type":"Point","coordinates":[71.63129,22.85]},"properties":{"rid":"24_475","name":"Surendranagar"}},{"type":"Feature","geometry":{"type":"Point","coordinates":[72.97919,22.847]},"properties":{"rid":"24_483","name":"Kheda"}},{"type":"Feature","geometry":{"type":"Point","coordinates":[72.75365,22.487]},"properties":{"rid":"24_482","name":"Anand"}},{"type":"Feature","geometry":{"type":"Point","coordinates":[70.9174,22.8175]},"properties":{"rid":"24_727","name":"Morbi"}},{"type":"Feature","geometry":{"type":"Point","coordinates":[76.61819,28.593]},"properties":{"rid":"06_83","name":"Jhajjar"}},{"type":"Feature","geometry":{"type":"Point","coordinates":[76.91284,28.3565]},"properties":{"rid":"06_86","name":"Gurugram"}},{"type":"Feature","geometry":{"type":"Point","coordinates":[77.32767,28.359]},"properties":{"rid":"06_88","name":"Faridabad"}},{"type":"Feature","geometry":{"type":"Point","coordinates":[76.17978,28.1245]},"properties":{"rid":"06_84","name":"Mahendragarh"}},{"type":"Feature","geometry":{"type":"Point","coordinates":[76.58425,28.216]},"properties":{"rid":"06_85","name":"Rewari"}},{"type":"Feature","geometry":{"type":"Point","coordinates":[77.04008,28.016]},"properties":{"rid":"06_87","name":"Nuh"}},{"type":"Feature","geometry":{"type":"Point","coordinates":[77.31562,28.054]},"properties":{"rid":"06_89","name":"Palwal"}},{"type":"Feature","geometry":{"type":"Point","coordinates":[76.12802,28.5935]},"properties":{"rid":"06_765","name":"Charkhi Dadri"}},{"type":"Feature","geometry":{"type":"Point","coordinates":[77.29025,30.204]},"properties":{"rid":"06_71","name":"Yamunanagar"}},{"type":"Feature","geometry":{"type":"Point","coordinates":[76.76572,30.0515]},"properties":{"rid":"06_72","name":"Kurukshetra"}},{"type":"Feature","geometry":{"type":"Point","coordinates":[76.46834,29.8555]},"properties":{"rid":"06_73","name":"Kaithal"}},{"type":"Feature","geometry":{"type":"Point","coordinates":[74.89572,29.615]},"properties":{"rid":"06_79","name":"Sirsa"}},{"type":"Feature","geometry":{"type":"Point","coordinates":[76.91703,29.707]},"properties":{"rid":"06_74","name":"Karnal"}},{"type":"Feature","geometry":{"type":"Point","coordinates":[76.27596,29.472]},"properties":{"rid":"06_77","name":"Jind"}},{"type":"Feature","geometry":{"type":"Point","coordinates":[75.57269,29.542]},"properties":{"rid":"06_78","name":"Fatehabad"}},{"type":"Feature","geometry":{"type":"Point","coordinates":[75.81697,29.239]},"properties":{"rid":"06_80","name":"Hisar"}},{"type":"Feature","geometry":{"type":"Point","coordinates":[76.90128,29.341]},"properties":{"rid":"06_75","name":"Panipat"}},{"type":"Feature","geometry":{"type":"Point","coordinates":[76.91885,29.0445]},"properties":{"rid":"06_76","name":"Sonipat"}},{"type":"Feature","geometry":{"type":"Point","coordinates":[75.89461,28.7535]},"properties":{"rid":"06_81","name":"Bhiwani"}},{"type":"Feature","geometry":{"type":"Point","coordinates":[76.55436,28.903]},"properties":{"rid":"06_82","name":"Rohtak"}},{"type":"Feature","geometry":{"type":"Point","coordinates":[76.99185,30.7]},"properties":{"rid":"06_69","name":"Panchkula"}},{"type":"Feature","geometry":{"type":"Point","coordinates":[76.94586,30.3445]},"properties":{"rid":"06_70","name":"Ambala"}},{"type":"Feature","geometry":{"type":"Point","coordinates":[77.58333,32.5095]},"properties":{"rid":"02_25","name":"Lahaul and Spiti"}},{"type":"Feature","geometry":{"type":"Point","coordinates":[76.16771,32.6935]},"properties":{"rid":"02_23","name":"Chamba"}},{"type":"Feature","geometry":{"type":"Point","coordinates":[76.28476,32.1055]},"properties":{"rid":"02_24","name":"Kangra"}},{"type":"Feature","geometry":{"type":"Point","coordinates":[77.41682,31.9015]},"properties":{"rid":"02_26","name":"Kullu"}},{"type":"Feature","geometry":{"type":"Point","coordinates":[77.01447,31.623]},"properties":{"rid":"02_27","name":"Mandi"}},{"type":"Feature","geometry":{"type":"Point","coordinates":[78.30982,31.572]},"properties":{"rid":"02_34","name":"Kinnaur"}},{"type":"Feature","geometry":{"type":"Point","coordinates":[76.25373,31.553]},"properties":{"rid":"02_29","name":"Una"}},{"type":"Feature","geometry":{"type":"Point","coordinates":[77.74522,31.2485]},"properties":{"rid":"02_33","name":"Shimla"}},{"type":"Feature","geometry":{"type":"Point","coordinates":[76.86006,31.0695]},"properties":{"rid":"02_31","name":"Solan"}},{"type":"Feature","geometry":{"type":"Point","coordinates":[77.44116,30.702]},"properties":{"rid":"02_32","name":"Sirmaur"}},{"type":"Feature","geometry":{"type":"Point","coordinates":[76.55269,31.6365]},"properties":{"rid":"02_28","name":"Hamirpur"}},{"type":"Feature","geometry":{"type":"Point","coordinates":[76.63675,31.3925]},"properties":{"rid":"02_30","name":"Bilaspur"}},{"type":"Feature","geometry":{"type":"Point","coordinates":[74.22111,34.5295]},"properties":{"rid":"01_1","name":"Kupwara"}},{"type":"Feature","geometry":{"type":"Point","coordinates":[74.70078,34.44]},"properties":{"rid":"01_9","name":"Bandipora"}},{"type":"Feature","geometry":{"type":"Point","coordinates":[74.31432,34.191]},"properties":{"rid":"01_8","name":"Baramulla"}},{"type":"Feature","geometry":{"type":"Point","coordinates":[75.0371,34.2845]},"properties":{"rid":"01_11","name":"Ganderbal"}},{"type":"Feature","geometry":{"type":"Point","coordinates":[75.24823,33.801]},"properties":{"rid":"01_14","name":"Anantnag"}},{"type":"Feature","geometry":{"type":"Point","coordinates":[75.88121,33.6175]},"properties":{"rid":"01_18","name":"Kishtwar"}},{"type":"Feature","geometry":{"type":"Point","coordinates":[74.93121,34.102]},"properties":{"rid":"01_10","name":"Srinagar"}},{"type":"Feature","geometry":{"type":"Point","coordinates":[74.62772,33.888]},"properties":{"rid":"01_2","name":"Budgam"}},{"type":"Feature","geometry":{"type":"Point","coordinates":[75.03525,33.956]},"properties":{"rid":"01_12","name":"Pulwama"}},{"type":"Feature","geometry":{"type":"Point","coordinates":[73.99707,33.8095]},"properties":{"rid":"01_5","name":"Punch"}},{"type":"Feature","geometry":{"type":"Point","coordinates":[74.80157,33.7215]},"properties":{"rid":"01_13","name":"Shopiyan"}},{"type":"Feature","geometry":{"type":"Point","coordinates":[74.83288,33.607]},"properties":{"rid":"01_15","name":"Kulgam"}},{"type":"Feature","geometry":{"type":"Point","coordinates":[74.33581,33.265]},"properties":{"rid":"01_6","name":"Rajouri"}},{"type":"Feature","geometry":{"type":"Point","coordinates":[75.20484,33.335]},"properties":{"rid":"01_17","name":"Ramban"}},{"type":"Feature","geometry":{"type":"Point","coordinates":[74.86958,33.219]},"properties":{"rid":"01_20","name":"Reasi"}},{"type":"Feature","geometry":{"type":"Point","coordinates":[75.61299,33.131]},"properties":{"rid":"01_16","name":"Doda"}},{"type":"Feature","geometry":{"type":"Point","coordinates":[74.89927,32.7675]},"properties":{"rid":"01_21","name":"Jammu"}},{"type":"Feature","geometry":{"type":"Point","coordinates":[75.58359,32.5785]},"properties":{"rid":"01_7","name":"Kathua"}},{"type":"Feature","geometry":{"type":"Point","coordinates":[75.3274,32.9065]},"properties":{"rid":"01_19","name":"Udhampur"}},{"type":"Feature","geometry":{"type":"Point","coordinates":[75.11082,32.5775]},"properties":{"rid":"01_22","name":"Samba"}},{"type":"Feature","geometry":{"type":"Point","coordinates":[73.79749,34.6085]},"properties":{"rid":"01_992","name":"Muzaffarabad"}},{"type":"Feature","geometry":{"type":"Point","coordinates":[73.85073,33.201]},"properties":{"rid":"01_991","name":"Mirpur"}},{"type":"Feature","geometry":{"type":"Point","coordinates":[87.6954,25.0165]},"properties":{"rid":"20_352","name":"Sahibganj"}},{"type":"Feature","geometry":{"type":"Point","coordinates":[87.31561,24.871]},"properties":{"rid":"20_351","name":"Godda"}},{"type":"Feature","geometry":{"type":"Point","coordinates":[87.68365,24.519]},"properties":{"rid":"20_353","name":"Pakur"}},{"type":"Feature","geometry":{"type":"Point","coordinates":[86.16414,24.3075]},"properties":{"rid":"20_349","name":"Giridih"}},{"type":"Feature","geometry":{"type":"Point","coordinates":[87.28488,24.3095]},"properties":{"rid":"20_362","name":"Dumka"}},{"type":"Feature","geometry":{"type":"Point","coordinates":[86.7057,24.3425]},"properties":{"rid":"20_350","name":"Deoghar"}},{"type":"Feature","geometry":{"type":"Point","coordinates":[84.16967,24.223]},"properties":{"rid":"20_358","name":"Palamu"}},{"type":"Feature","geometry":{"type":"Point","coordinates":[84.87306,24.121]},"properties":{"rid":"20_347","name":"Chatra"}},{"type":"Feature","geometry":{"type":"Point","coordinates":[83.66304,24.111]},"properties":{"rid":"20_346","name":"Garhwa"}},{"type":"Feature","geometry":{"type":"Point","coordinates":[86.94513,23.963]},"properties":{"rid":"20_363","name":"Jamtara"}},{"type":"Feature","geometry":{"type":"Point","coordinates":[86.44362,23.861]},"properties":{"rid":"20_354","name":"Dhanbad"}},{"type":"Feature","geometry":{"type":"Point","coordinates":[84.4821,23.6925]},"properties":{"rid":"20_359","name":"Latehar"}},{"type":"Feature","geometry":{"type":"Point","coordinates":[85.9974,23.6905]},"properties":{"rid":"20_355","name":"Bokaro"}},{"type":"Feature","geometry":{"type":"Point","coordinates":[85.52207,23.6945]},"properties":{"rid":"20_361","name":"Ramgarh"}},{"type":"Feature","geometry":{"type":"Point","coordinates":[85.36405,23.2875]},"properties":{"rid":"20_364","name":"Ranchi"}},{"type":"Feature","geometry":{"type":"Point","coordinates":[84.68456,23.4455]},"properties":{"rid":"20_356","name":"Lohardaga"}},{"type":"Feature","geometry":{"type":"Point","coordinates":[84.46407,23.1585]},"properties":{"rid":"20_366","name":"Gumla"}},{"type":"Feature","geometry":{"type":"Point","coordinates":[85.27931,22.9075]},"properties":{"rid":"20_365","name":"Khunti"}},{"type":"Feature","geometry":{"type":"Point","coordinates":[85.9318,22.8345]},"properties":{"rid":"20_369","name":"Saraikela-Kharsawan"}},{"type":"Feature","geometry":{"type":"Point","coordinates":[86.38684,22.6075]},"properties":{"rid":"20_357","name":"East Singhbhum"}},{"type":"Feature","geometry":{"type":"Point","coordinates":[85.53592,22.4305]},"properties":{"rid":"20_368","name":"West Singhbhum"}},{"type":"Feature","geometry":{"type":"Point","coordinates":[84.55486,22.605]},"properties":{"rid":"20_367","name":"Simdega"}},{"type":"Feature","geometry":{"type":"Point","coordinates":[85.69336,24.5405]},"properties":{"rid":"20_348","name":"Koderma"}},{"type":"Feature","geometry":{"type":"Point","coordinates":[85.48234,24.086]},"properties":{"rid":"20_360","name":"Hazaribagh"}},{"type":"Feature","geometry":{"type":"Point","coordinates":[77.25945,18.0135]},"properties":{"rid":"29_558","name":"Bidar"}},{"type":"Feature","geometry":{"type":"Point","coordinates":[76.76913,17.2315]},"properties":{"rid":"29_579","name":"Kalaburagi"}},{"type":"Feature","geometry":{"type":"Point","coordinates":[74.88133,16.174]},"properties":{"rid":"29_555","name":"Belagavi"}},{"type":"Feature","geometry":{"type":"Point","coordinates":[76.92514,16.583]},"properties":{"rid":"29_580","name":"Yadgir"}},{"type":"Feature","geometry":{"type":"Point","coordinates":[75.58817,16.29]},"properties":{"rid":"29_556","name":"Bagalkote"}},{"type":"Feature","geometry":{"type":"Point","coordinates":[76.90215,16.0435]},"properties":{"rid":"29_559","name":"Raichur"}},{"type":"Feature","geometry":{"type":"Point","coordinates":[76.31565,15.572]},"properties":{"rid":"29_560","name":"Koppal"}},{"type":"Feature","geometry":{"type":"Point","coordinates":[75.66663,15.43]},"properties":{"rid":"29_561","name":"Gadag"}},{"type":"Feature","geometry":{"type":"Point","coordinates":[76.70875,15.1955]},"properties":{"rid":"29_565","name":"Ballari"}},{"type":"Feature","geometry":{"type":"Point","coordinates":[75.13058,15.3915]},"properties":{"rid":"29_562","name":"Dharwad"}},{"type":"Feature","geometry":{"type":"Point","coordinates":[74.62335,14.7465]},"properties":{"rid":"29_563","name":"Uttara Kannada"}},{"type":"Feature","geometry":{"type":"Point","coordinates":[75.41243,14.7075]},"properties":{"rid":"29_564","name":"Haveri"}},{"type":"Feature","geometry":{"type":"Point","coordinates":[76.54524,14.2865]},"properties":{"rid":"29_566","name":"Chitradurga"}},{"type":"Feature","geometry":{"type":"Point","coordinates":[75.88588,14.362]},"properties":{"rid":"29_567","name":"Davanagere"}},{"type":"Feature","geometry":{"type":"Point","coordinates":[75.23824,14.022]},"properties":{"rid":"29_568","name":"Shivamogga"}},{"type":"Feature","geometry":{"type":"Point","coordinates":[74.88786,13.514]},"properties":{"rid":"29_569","name":"Udupi"}},{"type":"Feature","geometry":{"type":"Point","coordinates":[75.64149,13.434]},"properties":{"rid":"29_570","name":"Chikkamagaluru"}},{"type":"Feature","geometry":{"type":"Point","coordinates":[77.78963,13.5985]},"properties":{"rid":"29_582","name":"Chikkaballapura"}},{"type":"Feature","geometry":{"type":"Point","coordinates":[76.14788,13.0345]},"properties":{"rid":"29_574","name":"Hassan"}},{"type":"Feature","geometry":{"type":"Point","coordinates":[78.24805,13.1515]},"properties":{"rid":"29_581","name":"Kolar"}},{"type":"Feature","geometry":{"type":"Point","coordinates":[77.33422,13.189]},"properties":{"rid":"29_583","name":"Bengaluru Rural"}},{"type":"Feature","geometry":{"type":"Point","coordinates":[75.2264,12.822]},"properties":{"rid":"29_575","name":"Dakshina Kannada"}},{"type":"Feature","geometry":{"type":"Point","coordinates":[77.55044,12.9585]},"properties":{"rid":"29_572","name":"Bengaluru Urban"}},{"type":"Feature","geometry":{"type":"Point","coordinates":[75.66926,12.3805]},"properties":{"rid":"29_576","name":"Kodagu"}},{"type":"Feature","geometry":{"type":"Point","coordinates":[77.12698,11.9535]},"properties":{"rid":"29_578","name":"Chamarajanagara"}},{"type":"Feature","geometry":{"type":"Point","coordinates":[76.86418,13.404]},"properties":{"rid":"29_571","name":"Tumakuru"}},{"type":"Feature","geometry":{"type":"Point","coordinates":[77.33531,12.729]},"properties":{"rid":"29_584","name":"Ramanagara"}},{"type":"Feature","geometry":{"type":"Point","coordinates":[76.73298,12.6155]},"properties":{"rid":"29_573","name":"Mandya"}},{"type":"Feature","geometry":{"type":"Point","coordinates":[76.62116,12.1945]},"properties":{"rid":"29_577","name":"Mysuru"}},{"type":"Feature","geometry":{"type":"Point","coordinates":[75.88106,16.814]},"properties":{"rid":"29_557","name":"Vijayapura"}},{"type":"Feature","geometry":{"type":"Point","coordinates":[75.19095,12.432]},"properties":{"rid":"32_588","name":"Kasaragod"}},{"type":"Feature","geometry":{"type":"Point","coordinates":[76.12953,11.72]},"properties":{"rid":"32_590","name":"Wayanad"}},{"type":"Feature","geometry":{"type":"Point","coordinates":[75.87699,11.464]},"properties":{"rid":"32_591","name":"Kozhikode"}},{"type":"Feature","geometry":{"type":"Point","coordinates":[76.10373,11.1035]},"properties":{"rid":"32_592","name":"Malappuram"}},{"type":"Feature","geometry":{"type":"Point","coordinates":[76.47123,10.7905]},"properties":{"rid":"32_593","name":"Palakkad"}},{"type":"Feature","geometry":{"type":"Point","coordinates":[76.29698,10.4605]},"properties":{"rid":"32_594","name":"Thrissur"}},{"type":"Feature","geometry":{"type":"Point","coordinates":[76.94543,9.8385]},"properties":{"rid":"32_596","name":"Idukki"}},{"type":"Feature","geometry":{"type":"Point","coordinates":[76.5147,10.065]},"properties":{"rid":"32_595","name":"Ernakulam"}},{"type":"Feature","geometry":{"type":"Point","coordinates":[76.39775,9.5155]},"properties":{"rid":"32_598","name":"Alappuzha"}},{"type":"Feature","geometry":{"type":"Point","coordinates":[76.64225,9.624]},"properties":{"rid":"32_597","name":"Kottayam"}},{"type":"Feature","geometry":{"type":"Point","coordinates":[76.96969,9.245]},"properties":{"rid":"32_599","name":"Pathanamthitta"}},{"type":"Feature","geometry":{"type":"Point","coordinates":[76.86973,8.9475]},"properties":{"rid":"32_600","name":"Kollam"}},{"type":"Feature","geometry":{"type":"Point","coordinates":[77.06066,8.5625]},"properties":{"rid":"32_601","name":"Thiruvananthapuram"}},{"type":"Feature","geometry":{"type":"Point","coordinates":[75.54409,11.9955]},"properties":{"rid":"32_589","name":"Kannur"}},{"type":"Feature","geometry":{"type":"Point","coordinates":[78.23278,34.706]},"properties":{"rid":"38_3","name":"Leh"}},{"type":"Feature","geometry":{"type":"Point","coordinates":[76.47587,33.8]},"properties":{"rid":"38_4","name":"Kargil"}},{"type":"Feature","geometry":{"type":"Point","coordinates":[72.18,11.625]},"properties":{"rid":"31_587","name":"Lakshadweep"}},{"type":"Feature","geometry":{"type":"Point","coordinates":[76.37318,21.3405]},"properties":{"rid":"23_467","name":"Burhanpur"}},{"type":"Feature","geometry":{"type":"Point","coordinates":[79.70448,22.287]},"properties":{"rid":"23_456","name":"Seoni"}},{"type":"Feature","geometry":{"type":"Point","coordinates":[74.35086,22.284]},"properties":{"rid":"23_465","name":"Alirajpur"}},{"type":"Feature","geometry":{"type":"Point","coordinates":[78.80329,22.1865]},"properties":{"rid":"23_455","name":"Chhindwara"}},{"type":"Feature","geometry":{"type":"Point","coordinates":[77.11952,22.2535]},"properties":{"rid":"23_448","name":"Harda"}},{"type":"Feature","geometry":{"type":"Point","coordinates":[75.74531,21.9315]},"properties":{"rid":"23_440","name":"Khargone"}},{"type":"Feature","geometry":{"type":"Point","coordinates":[76.64843,21.979]},"properties":{"rid":"23_466","name":"Khandwa"}},{"type":"Feature","geometry":{"type":"Point","coordinates":[80.32621,21.8535]},"properties":{"rid":"23_457","name":"Balaghat"}},{"type":"Feature","geometry":{"type":"Point","coordinates":[74.89571,21.7525]},"properties":{"rid":"23_441","name":"Barwani"}},{"type":"Feature","geometry":{"type":"Point","coordinates":[77.86822,21.89]},"properties":{"rid":"23_447","name":"Betul"}},{"type":"Feature","geometry":{"type":"Point","coordinates":[77.86172,26.384]},"properties":{"rid":"23_419","name":"Morena"}},{"type":"Feature","geometry":{"type":"Point","coordinates":[78.68299,26.353]},"properties":{"rid":"23_420","name":"Bhind"}},{"type":"Feature","geometry":{"type":"Point","coordinates":[78.15209,26.026]},"properties":{"rid":"23_421","name":"Gwalior"}},{"type":"Feature","geometry":{"type":"Point","coordinates":[76.90941,25.7555]},"properties":{"rid":"23_418","name":"Sheopur"}},{"type":"Feature","geometry":{"type":"Point","coordinates":[77.83613,25.37]},"properties":{"rid":"23_423","name":"Shivpuri"}},{"type":"Feature","geometry":{"type":"Point","coordinates":[79.04912,24.849]},"properties":{"rid":"23_424","name":"Tikamgarh"}},{"type":"Feature","geometry":{"type":"Point","coordinates":[75.18512,24.6245]},"properties":{"rid":"23_432","name":"Neemuch"}},{"type":"Feature","geometry":{"type":"Point","coordinates":[81.6744,24.7545]},"properties":{"rid":"23_430","name":"Rewa"}},{"type":"Feature","geometry":{"type":"Point","coordinates":[80.8115,24.555]},"properties":{"rid":"23_429","name":"Satna"}},{"type":"Feature","geometry":{"type":"Point","coordinates":[77.25725,24.505]},"properties":{"rid":"23_458","name":"Guna"}},{"type":"Feature","geometry":{"type":"Point","coordinates":[77.87721,24.5925]},"properties":{"rid":"23_459","name":"Ashoknagar"}},{"type":"Feature","geometry":{"type":"Point","coordinates":[75.38395,24.2555]},"properties":{"rid":"23_433","name":"Mandsaur"}},{"type":"Feature","geometry":{"type":"Point","coordinates":[82.3865,24.2495]},"properties":{"rid":"23_463","name":"Singrauli"}},{"type":"Feature","geometry":{"type":"Point","coordinates":[81.69793,24.2025]},"properties":{"rid":"23_462","name":"Sidhi"}},{"type":"Feature","geometry":{"type":"Point","coordinates":[78.75571,23.7875]},"properties":{"rid":"23_427","name":"Sagar"}},{"type":"Feature","geometry":{"type":"Point","coordinates":[79.54581,23.779]},"properties":{"rid":"23_428","name":"Damoh"}},{"type":"Feature","geometry":{"type":"Point","coordinates":[76.59616,23.348]},"properties":{"rid":"23_436","name":"Shajapur"}},{"type":"Feature","geometry":{"type":"Point","coordinates":[77.83594,23.842]},"properties":{"rid":"23_443","name":"Vidisha"}},{"type":"Feature","geometry":{"type":"Point","coordinates":[76.77559,23.877]},"properties":{"rid":"23_442","name":"Rajgarh"}},{"type":"Feature","geometry":{"type":"Point","coordinates":[81.43108,23.629]},"properties":{"rid":"23_460","name":"Shahdol"}},{"type":"Feature","geometry":{"type":"Point","coordinates":[80.25221,23.714]},"properties":{"rid":"23_450","name":"Katni"}},{"type":"Feature","geometry":{"type":"Point","coordinates":[80.94577,23.6325]},"properties":{"rid":"23_431","name":"Umaria"}},{"type":"Feature","geometry":{"type":"Point","coordinates":[74.93895,23.4945]},"properties":{"rid":"23_434","name":"Ratlam"}},{"type":"Feature","geometry":{"type":"Point","coordinates":[77.39511,23.4665]},"properties":{"rid":"23_444","name":"Bhopal"}},{"type":"Feature","geometry":{"type":"Point","coordinates":[75.70741,23.327]},"properties":{"rid":"23_435","name":"Ujjain"}},{"type":"Feature","geometry":{"type":"Point","coordinates":[78.19351,23.2755]},"properties":{"rid":"23_446","name":"Raisen"}},{"type":"Feature","geometry":{"type":"Point","coordinates":[77.06321,23.119]},"properties":{"rid":"23_445","name":"Sehore"}},{"type":"Feature","geometry":{"type":"Point","coordinates":[79.9881,23.2305]},"properties":{"rid":"23_451","name":"Jabalpur"}},{"type":"Feature","geometry":{"type":"Point","coordinates":[76.31095,22.7885]},"properties":{"rid":"23_437","name":"Dewas"}},{"type":"Feature","geometry":{"type":"Point","coordinates":[81.57541,23.0225]},"properties":{"rid":"23_461","name":"Anuppur"}},{"type":"Feature","geometry":{"type":"Point","coordinates":[74.727,22.875]},"properties":{"rid":"23_464","name":"Jhabua"}},{"type":"Feature","geometry":{"type":"Point","coordinates":[80.89551,22.8925]},"properties":{"rid":"23_453","name":"Dindori"}},{"type":"Feature","geometry":{"type":"Point","coordinates":[79.09175,22.906]},"properties":{"rid":"23_452","name":"Narsinghpur"}},{"type":"Feature","geometry":{"type":"Point","coordinates":[75.22884,22.587]},"properties":{"rid":"23_438","name":"Dhar"}},{"type":"Feature","geometry":{"type":"Point","coordinates":[75.79364,22.7325]},"properties":{"rid":"23_439","name":"Indore"}},{"type":"Feature","geometry":{"type":"Point","coordinates":[80.58711,22.6765]},"properties":{"rid":"23_454","name":"Mandla"}},{"type":"Feature","geometry":{"type":"Point","coordinates":[77.94343,22.598]},"properties":{"rid":"23_449","name":"Hoshangabad"}},{"type":"Feature","geometry":{"type":"Point","coordinates":[76.13822,23.914]},"properties":{"rid":"23_724","name":"Agar Malwa"}},{"type":"Feature","geometry":{"type":"Point","coordinates":[78.62695,25.8715]},"properties":{"rid":"23_422","name":"Datia"}},{"type":"Feature","geometry":{"type":"Point","coordinates":[79.66963,24.761]},"properties":{"rid":"23_425","name":"Chhatarpur"}},{"type":"Feature","geometry":{"type":"Point","coordinates":[80.17116,24.5065]},"properties":{"rid":"23_426","name":"Panna"}},{"type":"Feature","geometry":{"type":"Point","coordinates":[78.67413,25.3135]},"properties":{"rid":"23_782","name":"Niwari"}},{"type":"Feature","geometry":{"type":"Point","coordinates":[80.26043,21.1485]},"properties":{"rid":"27_507","name":"Gondia"}},{"type":"Feature","geometry":{"type":"Point","coordinates":[79.80756,21.105]},"properties":{"rid":"27_506","name":"Bhandara"}},{"type":"Feature","geometry":{"type":"Point","coordinates":[75.51235,20.8265]},"properties":{"rid":"27_499","name":"Jalgaon"}},{"type":"Feature","geometry":{"type":"Point","coordinates":[78.60775,20.802]},"properties":{"rid":"27_504","name":"Wardha"}},{"type":"Feature","geometry":{"type":"Point","coordinates":[76.40379,20.58]},"properties":{"rid":"27_500","name":"Buldhana"}},{"type":"Feature","geometry":{"type":"Point","coordinates":[77.18725,20.747]},"properties":{"rid":"27_501","name":"Akola"}},{"type":"Feature","geometry":{"type":"Point","coordinates":[74.11189,20.2305]},"properties":{"rid":"27_516","name":"Nashik"}},{"type":"Feature","geometry":{"type":"Point","coordinates":[80.18405,19.7435]},"properties":{"rid":"27_508","name":"Gadchiroli"}},{"type":"Feature","geometry":{"type":"Point","coordinates":[77.22473,20.3125]},"properties":{"rid":"27_502","name":"Washim"}},{"type":"Feature","geometry":{"type":"Point","coordinates":[79.50975,20.091]},"properties":{"rid":"27_509","name":"Chandrapur"}},{"type":"Feature","geometry":{"type":"Point","coordinates":[78.35567,20.0805]},"properties":{"rid":"27_510","name":"Yavatmal"}},{"type":"Feature","geometry":{"type":"Point","coordinates":[75.86409,19.9165]},"properties":{"rid":"27_514","name":"Jalna"}},{"type":"Feature","geometry":{"type":"Point","coordinates":[74.82948,19.165]},"properties":{"rid":"27_522","name":"Ahmednagar"}},{"type":"Feature","geometry":{"type":"Point","coordinates":[77.18022,19.5885]},"properties":{"rid":"27_512","name":"Hingoli"}},{"type":"Feature","geometry":{"type":"Point","coordinates":[77.48532,19.0965]},"properties":{"rid":"27_511","name":"Nanded"}},{"type":"Feature","geometry":{"type":"Point","coordinates":[76.60812,19.296]},"properties":{"rid":"27_513","name":"Parbhani"}},{"type":"Feature","geometry":{"type":"Point","coordinates":[73.92851,18.6485]},"properties":{"rid":"27_521","name":"Pune"}},{"type":"Feature","geometry":{"type":"Point","coordinates":[75.66571,18.994]},"properties":{"rid":"27_523","name":"Beed"}},{"type":"Feature","geometry":{"type":"Point","coordinates":[72.89489,19.0695]},"properties":{"rid":"27_519","name":"Mumbai"}},{"type":"Feature","geometry":{"type":"Point","coordinates":[76.74574,18.357]},"properties":{"rid":"27_524","name":"Latur"}},{"type":"Feature","geometry":{"type":"Point","coordinates":[76.11073,18.1585]},"properties":{"rid":"27_525","name":"Osmanabad"}},{"type":"Feature","geometry":{"type":"Point","coordinates":[75.25893,17.8595]},"properties":{"rid":"27_526","name":"Solapur"}},{"type":"Feature","geometry":{"type":"Point","coordinates":[74.29155,17.6575]},"properties":{"rid":"27_527","name":"Satara"}},{"type":"Feature","geometry":{"type":"Point","coordinates":[73.46022,17.294]},"properties":{"rid":"27_528","name":"Ratnagiri"}},{"type":"Feature","geometry":{"type":"Point","coordinates":[75.27999,17.1725]},"properties":{"rid":"27_531","name":"Sangli"}},{"type":"Feature","geometry":{"type":"Point","coordinates":[74.0822,16.4715]},"properties":{"rid":"27_530","name":"Kolhapur"}},{"type":"Feature","geometry":{"type":"Point","coordinates":[73.70404,16.115]},"properties":{"rid":"27_529","name":"Sindhudurg"}},{"type":"Feature","geometry":{"type":"Point","coordinates":[73.33958,19.3455]},"properties":{"rid":"27_517","name":"Thane"}},{"type":"Feature","geometry":{"type":"Point","coordinates":[73.07611,19.745]},"properties":{"rid":"27_732","name":"Palghar"}},{"type":"Feature","geometry":{"type":"Point","coordinates":[74.54067,21.5115]},"properties":{"rid":"27_497","name":"Nandurbar"}},{"type":"Feature","geometry":{"type":"Point","coordinates":[77.64471,21.1665]},"properties":{"rid":"27_503","name":"Amravati"}},{"type":"Feature","geometry":{"type":"Point","coordinates":[74.4363,21.116]},"properties":{"rid":"27_498","name":"Dhule"}},{"type":"Feature","geometry":{"type":"Point","coordinates":[79.02405,21.1545]},"properties":{"rid":"27_505","name":"Nagpur"}},{"type":"Feature","geometry":{"type":"Point","coordinates":[75.16048,20.0435]},"properties":{"rid":"27_515","name":"Aurangabad"}},{"type":"Feature","geometry":{"type":"Point","coordinates":[73.15522,18.4815]},"properties":{"rid":"27_520","name":"Raigad"}},{"type":"Feature","geometry":{"type":"Point","coordinates":[94.39603,24.7975]},"properties":{"rid":"14_770","name":"Kamjong"}},{"type":"Feature","geometry":{"type":"Point","coordinates":[94.16652,25.385]},"properties":{"rid":"14_272","name":"Senapati"}},{"type":"Feature","geometry":{"type":"Point","coordinates":[93.55961,25.086]},"properties":{"rid":"14_273","name":"Tamenglong"}},{"type":"Feature","geometry":{"type":"Point","coordinates":[93.86375,24.783]},"properties":{"rid":"14_277","name":"Imphal West"}},{"type":"Feature","geometry":{"type":"Point","coordinates":[93.88187,24.389]},"properties":{"rid":"14_768","name":"Kakching"}},{"type":"Feature","geometry":{"type":"Point","coordinates":[93.7966,24.5055]},"properties":{"rid":"14_275","name":"Bishnupur"}},{"type":"Feature","geometry":{"type":"Point","coordinates":[94.01135,24.1725]},"properties":{"rid":"14_280","name":"Chandel"}},{"type":"Feature","geometry":{"type":"Point","coordinates":[93.67528,24.281]},"properties":{"rid":"14_274","name":"Churachandpur"}},{"type":"Feature","geometry":{"type":"Point","coordinates":[94.01242,24.788]},"properties":{"rid":"14_278","name":"Imphal East"}},{"type":"Feature","geometry":{"type":"Point","coordinates":[93.15198,24.6465]},"properties":{"rid":"14_766","name":"Jiribam"}},{"type":"Feature","geometry":{"type":"Point","coordinates":[93.98035,25.005]},"properties":{"rid":"14_767","name":"Kangpokpi"}},{"type":"Feature","geometry":{"type":"Point","coordinates":[94.00448,24.621]},"properties":{"rid":"14_276","name":"Thoubal"}},{"type":"Feature","geometry":{"type":"Point","coordinates":[94.25174,24.342]},"properties":{"rid":"14_769","name":"Tengnoupal"}},{"type":"Feature","geometry":{"type":"Point","coordinates":[94.47546,25.312]},"properties":{"rid":"14_279","name":"Ukhrul"}},{"type":"Feature","geometry":{"type":"Point","coordinates":[93.51689,24.679]},"properties":{"rid":"14_771","name":"Noney"}},{"type":"Feature","geometry":{"type":"Point","coordinates":[93.25186,24.296]},"properties":{"rid":"14_772","name":"Pherzawl"}},{"type":"Feature","geometry":{"type":"Point","coordinates":[91.83223,25.8835]},"properties":{"rid":"17_297","name":"Ribhoi"}},{"type":"Feature","geometry":{"type":"Point","coordinates":[91.26991,25.58]},"properties":{"rid":"17_296","name":"West Khasi Hills"}},{"type":"Feature","geometry":{"type":"Point","coordinates":[92.47883,25.28]},"properties":{"rid":"17_714","name":"East Jaintia Hills"}},{"type":"Feature","geometry":{"type":"Point","coordinates":[91.81672,25.4]},"properties":{"rid":"17_298","name":"East Khasi Hills"}},{"type":"Feature","geometry":{"type":"Point","coordinates":[90.55827,25.3555]},"properties":{"rid":"17_295","name":"South Garo Hills"}},{"type":"Feature","geometry":{"type":"Point","coordinates":[90.24527,25.5765]},"properties":{"rid":"17_293","name":"West Garo Hills"}},{"type":"Feature","geometry":{"type":"Point","coordinates":[90.65112,25.633]},"properties":{"rid":"17_294","name":"East Garo Hills"}},{"type":"Feature","geometry":{"type":"Point","coordinates":[92.28912,25.438]},"properties":{"rid":"17_299","name":"West Jaintia Hills"}},{"type":"Feature","geometry":{"type":"Point","coordinates":[91.20141,25.3235]},"properties":{"rid":"17_713","name":"South West Khasi Hills"}},{"type":"Feature","geometry":{"type":"Point","coordinates":[90.70154,25.858]},"properties":{"rid":"17_712","name":"North Garo Hills"}},{"type":"Feature","geometry":{"type":"Point","coordinates":[90.00124,25.433]},"properties":{"rid":"17_711","name":"South West Garo Hills"}},{"type":"Feature","geometry":{"type":"Point","coordinates":[92.90694,23.893]},"properties":{"rid":"15_261","name":"Aizawl"}},{"type":"Feature","geometry":{"type":"Point","coordinates":[93.24971,23.788]},"properties":{"rid":"15_262","name":"Champhai"}},{"type":"Feature","geometry":{"type":"Point","coordinates":[92.72249,24.233]},"properties":{"rid":"15_263","name":"Kolasib"}},{"type":"Feature","geometry":{"type":"Point","coordinates":[92.73495,22.3625]},"properties":{"rid":"15_264","name":"Lawngtlai"}},{"type":"Feature","geometry":{"type":"Point","coordinates":[92.63278,23.0025]},"properties":{"rid":"15_265","name":"Lunglei"}},{"type":"Feature","geometry":{"type":"Point","coordinates":[92.44634,23.772]},"properties":{"rid":"15_266","name":"Mamit"}},{"type":"Feature","geometry":{"type":"Point","coordinates":[93.06068,22.4095]},"properties":{"rid":"15_267","name":"Saiha"}},{"type":"Feature","geometry":{"type":"Point","coordinates":[92.86759,23.2715]},"properties":{"rid":"15_268","name":"Serchhip"}},{"type":"Feature","geometry":{"type":"Point","coordinates":[93.1612,23.5265]},"properties":{"rid":"15_996","name":"Khawzawl"}},{"type":"Feature","geometry":{"type":"Point","coordinates":[93.00868,22.9775]},"properties":{"rid":"15_994","name":"Hnahthial"}},{"type":"Feature","geometry":{"type":"Point","coordinates":[94.99145,26.6375]},"properties":{"rid":"13_261","name":"Mon"}},{"type":"Feature","geometry":{"type":"Point","coordinates":[94.79585,26.589]},"properties":{"rid":"13_268","name":"Longleng"}},{"type":"Feature","geometry":{"type":"Point","coordinates":[94.51133,26.4715]},"properties":{"rid":"13_262","name":"Mokokchung"}},{"type":"Feature","geometry":{"type":"Point","coordinates":[94.90548,26.153]},"properties":{"rid":"13_267","name":"Tuensang"}},{"type":"Feature","geometry":{"type":"Point","coordinates":[94.83572,25.8095]},"properties":{"rid":"13_269","name":"Kiphire"}},{"type":"Feature","geometry":{"type":"Point","coordinates":[93.61828,25.441]},"properties":{"rid":"13_271","name":"Peren"}},{"type":"Feature","geometry":{"type":"Point","coordinates":[94.22168,26.27]},"properties":{"rid":"13_264","name":"Wokha"}},{"type":"Feature","geometry":{"type":"Point","coordinates":[94.45592,25.9715]},"properties":{"rid":"13_263","name":"Zunheboto"}},{"type":"Feature","geometry":{"type":"Point","coordinates":[94.37809,25.658]},"properties":{"rid":"13_266","name":"Phek"}},{"type":"Feature","geometry":{"type":"Point","coordinates":[94.11489,25.744]},"properties":{"rid":"13_270","name":"Kohima"}},{"type":"Feature","geometry":{"type":"Point","coordinates":[93.9105,25.826]},"properties":{"rid":"13_265","name":"Dimapur"}},{"type":"Feature","geometry":{"type":"Point","coordinates":[86.60316,20.962]},"properties":{"rid":"21_378","name":"Bhadrak"}},{"type":"Feature","geometry":{"type":"Point","coordinates":[85.60831,20.828]},"properties":{"rid":"21_383","name":"Dhenkanal"}},{"type":"Feature","geometry":{"type":"Point","coordinates":[86.11358,20.865]},"properties":{"rid":"21_382","name":"Jajpur"}},{"type":"Feature","geometry":{"type":"Point","coordinates":[83.85489,20.8575]},"properties":{"rid":"21_392","name":"Subarnapur"}},{"type":"Feature","geometry":{"type":"Point","coordinates":[82.53119,20.536]},"properties":{"rid":"21_394","name":"Nuapada"}},{"type":"Feature","geometry":{"type":"Point","coordinates":[83.17116,20.618]},"properties":{"rid":"21_393","name":"Balangir"}},{"type":"Feature","geometry":{"type":"Point","coordinates":[83.98892,20.6375]},"properties":{"rid":"21_391","name":"Boudh"}},{"type":"Feature","geometry":{"type":"Point","coordinates":[85.44659,20.3725]},"properties":{"rid":"21_381","name":"Cuttack"}},{"type":"Feature","geometry":{"type":"Point","coordinates":[84.07408,20.121]},"properties":{"rid":"21_390","name":"Kandhamal"}},{"type":"Feature","geometry":{"type":"Point","coordinates":[85.05318,20.2405]},"properties":{"rid":"21_385","name":"Nayagarh"}},{"type":"Feature","geometry":{"type":"Point","coordinates":[85.51948,20.0195]},"properties":{"rid":"21_386","name":"Khordha"}},{"type":"Feature","geometry":{"type":"Point","coordinates":[83.03633,19.8125]},"properties":{"rid":"21_395","name":"Kalahandi"}},{"type":"Feature","geometry":{"type":"Point","coordinates":[86.33102,20.163]},"properties":{"rid":"21_380","name":"Jagatsinghpur"}},{"type":"Feature","geometry":{"type":"Point","coordinates":[85.67611,19.8315]},"properties":{"rid":"21_387","name":"Puri"}},{"type":"Feature","geometry":{"type":"Point","coordinates":[82.29659,19.605]},"properties":{"rid":"21_397","name":"Nabarangapur"}},{"type":"Feature","geometry":{"type":"Point","coordinates":[83.47387,19.4585]},"properties":{"rid":"21_396","name":"Rayagada"}},{"type":"Feature","geometry":{"type":"Point","coordinates":[82.60517,18.7255]},"properties":{"rid":"21_398","name":"Koraput"}},{"type":"Feature","geometry":{"type":"Point","coordinates":[81.95474,18.278]},"properties":{"rid":"21_399","name":"Malkangiri"}},{"type":"Feature","geometry":{"type":"Point","coordinates":[84.96045,21.117]},"properties":{"rid":"21_384","name":"Angul"}},{"type":"Feature","geometry":{"type":"Point","coordinates":[86.54482,20.5585]},"properties":{"rid":"21_379","name":"Kendrapara"}},{"type":"Feature","geometry":{"type":"Point","coordinates":[84.7086,19.6295]},"properties":{"rid":"21_388","name":"Ganjam"}},{"type":"Feature","geometry":{"type":"Point","coordinates":[84.17982,19.2005]},"properties":{"rid":"21_389","name":"Gajapati"}},{"type":"Feature","geometry":{"type":"Point","coordinates":[86.40205,21.932]},"properties":{"rid":"21_376","name":"Mayurbhanj"}},{"type":"Feature","geometry":{"type":"Point","coordinates":[83.90674,22.06]},"properties":{"rid":"21_374","name":"Sundargarh"}},{"type":"Feature","geometry":{"type":"Point","coordinates":[85.67683,21.599]},"properties":{"rid":"21_375","name":"Kendujhar"}},{"type":"Feature","geometry":{"type":"Point","coordinates":[86.95904,21.541]},"properties":{"rid":"21_377","name":"Balasore"}},{"type":"Feature","geometry":{"type":"Point","coordinates":[83.98231,21.8025]},"properties":{"rid":"21_371","name":"Jharsuguda"}},{"type":"Feature","geometry":{"type":"Point","coordinates":[83.55736,21.216]},"properties":{"rid":"21_370","name":"Bargarh"}},{"type":"Feature","geometry":{"type":"Point","coordinates":[84.74887,21.4555]},"properties":{"rid":"21_373","name":"Deogarh"}},{"type":"Feature","geometry":{"type":"Point","coordinates":[84.16405,21.5445]},"properties":{"rid":"21_372","name":"Sambalpur"}},{"type":"Feature","geometry":{"type":"Point","coordinates":[79.79114,11.925]},"properties":{"rid":"34_635","name":"Puducherry"}},{"type":"Feature","geometry":{"type":"Point","coordinates":[79.7965,10.918]},"properties":{"rid":"34_637","name":"Karaikal"}},{"type":"Feature","geometry":{"type":"Point","coordinates":[82.20725,16.73]},"properties":{"rid":"34_634","name":"Yanam"}},{"type":"Feature","geometry":{"type":"Point","coordinates":[75.23297,31.902]},"properties":{"rid":"03_35","name":"Gurdaspur"}},{"type":"Feature","geometry":{"type":"Point","coordinates":[75.79333,31.6195]},"properties":{"rid":"03_38","name":"Hoshiarpur"}},{"type":"Feature","geometry":{"type":"Point","coordinates":[74.83941,31.783]},"properties":{"rid":"03_49","name":"Amritsar"}},{"type":"Feature","geometry":{"type":"Point","coordinates":[75.5752,31.292]},"properties":{"rid":"03_37","name":"Jalandhar"}},{"type":"Feature","geometry":{"type":"Point","coordinates":[74.83996,31.341]},"properties":{"rid":"03_50","name":"Tarn Taran"}},{"type":"Feature","geometry":{"type":"Point","coordinates":[76.53704,31.0535]},"properties":{"rid":"03_51","name":"Rupnagar"}},{"type":"Feature","geometry":{"type":"Point","coordinates":[76.17759,31.076]},"properties":{"rid":"03_39","name":"Shahid Bhagat Singh Nagar"}},{"type":"Feature","geometry":{"type":"Point","coordinates":[74.11199,30.315]},"properties":{"rid":"03_701","name":"Fazilka"}},{"type":"Feature","geometry":{"type":"Point","coordinates":[75.15022,30.771]},"properties":{"rid":"03_42","name":"Moga"}},{"type":"Feature","geometry":{"type":"Point","coordinates":[75.84433,30.7805]},"properties":{"rid":"03_41","name":"Ludhiana"}},{"type":"Feature","geometry":{"type":"Point","coordinates":[76.72896,30.652]},"properties":{"rid":"03_52","name":"S.A.S. Nagar"}},{"type":"Feature","geometry":{"type":"Point","coordinates":[74.79054,30.6175]},"properties":{"rid":"03_45","name":"Faridkot"}},{"type":"Feature","geometry":{"type":"Point","coordinates":[76.40491,30.6665]},"properties":{"rid":"03_40","name":"Fatehgarh Sahib"}},{"type":"Feature","geometry":{"type":"Point","coordinates":[74.50066,30.278]},"properties":{"rid":"03_44","name":"Sri Muktsar Sahib"}},{"type":"Feature","geometry":{"type":"Point","coordinates":[75.8334,30.2115]},"properties":{"rid":"03_53","name":"Sangrur"}},{"type":"Feature","geometry":{"type":"Point","coordinates":[75.49362,30.357]},"properties":{"rid":"03_54","name":"Barnala"}},{"type":"Feature","geometry":{"type":"Point","coordinates":[75.03393,30.18]},"properties":{"rid":"03_46","name":"Bathinda"}},{"type":"Feature","geometry":{"type":"Point","coordinates":[76.34544,30.2065]},"properties":{"rid":"03_48","name":"Patiala"}},{"type":"Feature","geometry":{"type":"Point","coordinates":[75.47417,29.885]},"properties":{"rid":"03_47","name":"Mansa"}},{"type":"Feature","geometry":{"type":"Point","coordinates":[74.64408,30.864]},"properties":{"rid":"03_43","name":"Ferozepur"}},{"type":"Feature","geometry":{"type":"Point","coordinates":[75.65949,32.2975]},"properties":{"rid":"03_773","name":"Pathankot"}},{"type":"Feature","geometry":{"type":"Point","coordinates":[75.35058,31.438]},"properties":{"rid":"03_36","name":"Kapurthala"}},{"type":"Feature","geometry":{"type":"Point","coordinates":[74.68799,28.226]},"properties":{"rid":"08_102","name":"Churu"}},{"type":"Feature","geometry":{"type":"Point","coordinates":[75.54231,28.0775]},"properties":{"rid":"08_103","name":"Jhunjhunu"}},{"type":"Feature","geometry":{"type":"Point","coordinates":[70.7869,27.0575]},"properties":{"rid":"08_114","name":"Jaisalmer"}},{"type":"Feature","geometry":{"type":"Point","coordinates":[75.06575,27.66]},"properties":{"rid":"08_111","name":"Sikar"}},{"type":"Feature","geometry":{"type":"Point","coordinates":[76.60521,27.6415]},"properties":{"rid":"08_104","name":"Alwar"}},{"type":"Feature","geometry":{"type":"Point","coordinates":[75.79299,27.164]},"properties":{"rid":"08_110","name":"Jaipur"}},{"type":"Feature","geometry":{"type":"Point","coordinates":[72.87582,26.744]},"properties":{"rid":"08_113","name":"Jodhpur"}},{"type":"Feature","geometry":{"type":"Point","coordinates":[77.36741,27.2725]},"properties":{"rid":"08_105","name":"Bharatpur"}},{"type":"Feature","geometry":{"type":"Point","coordinates":[74.15939,27.03]},"properties":{"rid":"08_112","name":"Nagaur"}},{"type":"Feature","geometry":{"type":"Point","coordinates":[76.44814,26.8175]},"properties":{"rid":"08_109","name":"Dausa"}},{"type":"Feature","geometry":{"type":"Point","coordinates":[77.02649,26.4705]},"properties":{"rid":"08_107","name":"Karauli"}},{"type":"Feature","geometry":{"type":"Point","coordinates":[77.62472,26.639]},"properties":{"rid":"08_106","name":"Dholpur"}},{"type":"Feature","geometry":{"type":"Point","coordinates":[71.62304,25.57]},"properties":{"rid":"08_115","name":"Barmer"}},{"type":"Feature","geometry":{"type":"Point","coordinates":[76.29987,26.2285]},"properties":{"rid":"08_108","name":"Sawai Madhopur"}},{"type":"Feature","geometry":{"type":"Point","coordinates":[75.58388,26.179]},"properties":{"rid":"08_120","name":"Tonk"}},{"type":"Feature","geometry":{"type":"Point","coordinates":[73.41636,25.5965]},"properties":{"rid":"08_118","name":"Pali"}},{"type":"Feature","geometry":{"type":"Point","coordinates":[74.72081,25.491]},"properties":{"rid":"08_122","name":"Bhilwara"}},{"type":"Feature","geometry":{"type":"Point","coordinates":[72.33031,25.22]},"properties":{"rid":"08_116","name":"Jalore"}},{"type":"Feature","geometry":{"type":"Point","coordinates":[75.75454,25.449]},"properties":{"rid":"08_121","name":"Bundi"}},{"type":"Feature","geometry":{"type":"Point","coordinates":[76.01008,25.2035]},"properties":{"rid":"08_127","name":"Kota"}},{"type":"Feature","geometry":{"type":"Point","coordinates":[72.81689,24.806]},"properties":{"rid":"08_117","name":"Sirohi"}},{"type":"Feature","geometry":{"type":"Point","coordinates":[76.69055,24.9245]},"properties":{"rid":"08_128","name":"Baran"}},{"type":"Feature","geometry":{"type":"Point","coordinates":[73.71039,24.4475]},"properties":{"rid":"08_130","name":"Udaipur"}},{"type":"Feature","geometry":{"type":"Point","coordinates":[76.31481,24.3125]},"properties":{"rid":"08_129","name":"Jhalawar"}},{"type":"Feature","geometry":{"type":"Point","coordinates":[73.80023,23.6795]},"properties":{"rid":"08_124","name":"Dungarpur"}},{"type":"Feature","geometry":{"type":"Point","coordinates":[74.33832,23.4775]},"properties":{"rid":"08_125","name":"Banswara"}},{"type":"Feature","geometry":{"type":"Point","coordinates":[74.71194,26.366]},"properties":{"rid":"08_119","name":"Ajmer"}},{"type":"Feature","geometry":{"type":"Point","coordinates":[73.83826,25.3165]},"properties":{"rid":"08_123","name":"Rajsamand"}},{"type":"Feature","geometry":{"type":"Point","coordinates":[74.46352,24.7205]},"properties":{"rid":"08_126","name":"Chittorgarh"}},{"type":"Feature","geometry":{"type":"Point","coordinates":[73.57376,29.449]},"properties":{"rid":"08_99","name":"Ganganagar"}},{"type":"Feature","geometry":{"type":"Point","coordinates":[74.29717,29.3675]},"properties":{"rid":"08_100","name":"Hanumangarh"}},{"type":"Feature","geometry":{"type":"Point","coordinates":[73.10711,28.083]},"properties":{"rid":"08_101","name":"Bikaner"}},{"type":"Feature","geometry":{"type":"Point","coordinates":[74.62017,24.0145]},"properties":{"rid":"08_131","name":"Pratapgarh"}},{"type":"Feature","geometry":{"type":"Point","coordinates":[88.51505,27.7625]},"properties":{"rid":"11_241","name":"North Sikkim"}},{"type":"Feature","geometry":{"type":"Point","coordinates":[88.16712,27.345]},"properties":{"rid":"11_242","name":"West Sikkim"}},{"type":"Feature","geometry":{"type":"Point","coordinates":[88.37427,27.32]},"properties":{"rid":"11_243","name":"South Sikkim"}},{"type":"Feature","geometry":{"type":"Point","coordinates":[88.68103,27.2965]},"properties":{"rid":"11_244","name":"East Sikkim"}},{"type":"Feature","geometry":{"type":"Point","coordinates":[80.05524,13.254]},"properties":{"rid":"33_602","name":"Thiruvallur"}},{"type":"Feature","geometry":{"type":"Point","coordinates":[80.21563,12.9725]},"properties":{"rid":"33_603","name":"Chennai"}},{"type":"Feature","geometry":{"type":"Point","coordinates":[78.00151,12.5375]},"properties":{"rid":"33_631","name":"Krishnagiri"}},{"type":"Feature","geometry":{"type":"Point","coordinates":[78.99508,12.405]},"properties":{"rid":"33_606","name":"Tiruvannamalai"}},{"type":"Feature","geometry":{"type":"Point","coordinates":[78.21818,12.1645]},"properties":{"rid":"33_630","name":"Dharmapuri"}},{"type":"Feature","geometry":{"type":"Point","coordinates":[78.268,11.633]},"properties":{"rid":"33_608","name":"Salem"}},{"type":"Feature","geometry":{"type":"Point","coordinates":[77.35685,11.487]},"properties":{"rid":"33_610","name":"Erode"}},{"type":"Feature","geometry":{"type":"Point","coordinates":[76.68161,11.4475]},"properties":{"rid":"33_611","name":"Nilgiris"}},{"type":"Feature","geometry":{"type":"Point","coordinates":[78.10742,11.337]},"properties":{"rid":"33_609","name":"Namakkal"}},{"type":"Feature","geometry":{"type":"Point","coordinates":[78.9181,11.2685]},"properties":{"rid":"33_615","name":"Perambalur"}},{"type":"Feature","geometry":{"type":"Point","coordinates":[77.08025,10.811]},"properties":{"rid":"33_632","name":"Coimbatore"}},{"type":"Feature","geometry":{"type":"Point","coordinates":[78.73461,10.8695]},"properties":{"rid":"33_614","name":"Tiruchirappalli"}},{"type":"Feature","geometry":{"type":"Point","coordinates":[79.27697,11.1755]},"properties":{"rid":"33_616","name":"Ariyalur"}},{"type":"Feature","geometry":{"type":"Point","coordinates":[77.54699,10.7895]},"properties":{"rid":"33_633","name":"Tiruppur"}},{"type":"Feature","geometry":{"type":"Point","coordinates":[79.20859,10.632]},"properties":{"rid":"33_620","name":"Thanjavur"}},{"type":"Feature","geometry":{"type":"Point","coordinates":[78.20314,10.821]},"properties":{"rid":"33_613","name":"Karur"}},{"type":"Feature","geometry":{"type":"Point","coordinates":[79.4973,10.6835]},"properties":{"rid":"33_619","name":"Thiruvarur"}},{"type":"Feature","geometry":{"type":"Point","coordinates":[77.81083,10.4065]},"properties":{"rid":"33_612","name":"Dindigul"}},{"type":"Feature","geometry":{"type":"Point","coordinates":[78.0416,9.951]},"properties":{"rid":"33_623","name":"Madurai"}},{"type":"Feature","geometry":{"type":"Point","coordinates":[77.42041,9.868]},"properties":{"rid":"33_624","name":"Theni"}},{"type":"Feature","geometry":{"type":"Point","coordinates":[77.8694,9.4775]},"properties":{"rid":"33_625","name":"Virudhunagar"}},{"type":"Feature","geometry":{"type":"Point","coordinates":[77.99495,8.8445]},"properties":{"rid":"33_627","name":"Thoothukkudi"}},{"type":"Feature","geometry":{"type":"Point","coordinates":[77.36247,8.3255]},"properties":{"rid":"33_629","name":"Kanyakumari"}},{"type":"Feature","geometry":{"type":"Point","coordinates":[79.58113,12.095]},"properties":{"rid":"33_607","name":"Viluppuram"}},{"type":"Feature","geometry":{"type":"Point","coordinates":[79.33192,11.5325]},"properties":{"rid":"33_617","name":"Cuddalore"}},{"type":"Feature","geometry":{"type":"Point","coordinates":[78.85359,10.2895]},"properties":{"rid":"33_621","name":"Pudukkottai"}},{"type":"Feature","geometry":{"type":"Point","coordinates":[78.70441,9.9565]},"properties":{"rid":"33_622","name":"Sivaganga"}},{"type":"Feature","geometry":{"type":"Point","coordinates":[78.64421,9.514]},"properties":{"rid":"33_626","name":"Ramanathapuram"}},{"type":"Feature","geometry":{"type":"Point","coordinates":[79.76132,10.6055]},"properties":{"rid":"33_618","name":"Nagapattinam"}},{"type":"Feature","geometry":{"type":"Point","coordinates":[79.0289,11.817]},"properties":{"rid":"33_729","name":"Kallakurichi"}},{"type":"Feature","geometry":{"type":"Point","coordinates":[77.4498,9.078]},"properties":{"rid":"33_9001","name":"Tenkasi"}},{"type":"Feature","geometry":{"type":"Point","coordinates":[77.53683,8.5915]},"properties":{"rid":"33_628","name":"Tirunelveli"}},{"type":"Feature","geometry":{"type":"Point","coordinates":[78.90568,12.9035]},"properties":{"rid":"33_605","name":"Vellore"}},{"type":"Feature","geometry":{"type":"Point","coordinates":[79.38505,12.9085]},"properties":{"rid":"33_9002","name":"Ranipet"}},{"type":"Feature","geometry":{"type":"Point","coordinates":[78.627,12.586]},"properties":{"rid":"33_9003","name":"Tirupathur"}},{"type":"Feature","geometry":{"type":"Point","coordinates":[79.82199,12.795]},"properties":{"rid":"33_604","name":"Kancheepuram"}},{"type":"Feature","geometry":{"type":"Point","coordinates":[80.07369,12.694]},"properties":{"rid":"33_9004","name":"Chengalpattu"}},{"type":"Feature","geometry":{"type":"Point","coordinates":[78.61653,19.5115]},"properties":{"rid":"36_532","name":"Adilabad"}},{"type":"Feature","geometry":{"type":"Point","coordinates":[78.46427,17.38]},"properties":{"rid":"36_536","name":"Hyderabad"}},{"type":"Feature","geometry":{"type":"Point","coordinates":[78.89126,18.843]},"properties":{"rid":"36_737","name":"Jagtial"}},{"type":"Feature","geometry":{"type":"Point","coordinates":[79.25723,17.7535]},"properties":{"rid":"36_752","name":"Jangaon"}},{"type":"Feature","geometry":{"type":"Point","coordinates":[80.31912,18.2785]},"properties":{"rid":"36_780","name":"Mulugu"}},{"type":"Feature","geometry":{"type":"Point","coordinates":[77.73669,16.096]},"properties":{"rid":"36_744","name":"Jogulamba Gadwal"}},{"type":"Feature","geometry":{"type":"Point","coordinates":[78.0471,18.301]},"properties":{"rid":"36_736","name":"Kamareddy"}},{"type":"Feature","geometry":{"type":"Point","coordinates":[79.21942,18.405]},"properties":{"rid":"36_534","name":"Karimnagar"}},{"type":"Feature","geometry":{"type":"Point","coordinates":[80.38696,17.164]},"properties":{"rid":"36_541","name":"Khammam"}},{"type":"Feature","geometry":{"type":"Point","coordinates":[79.40888,19.32]},"properties":{"rid":"36_733","name":"Komaram Bheem"}},{"type":"Feature","geometry":{"type":"Point","coordinates":[80.01934,17.7085]},"properties":{"rid":"36_751","name":"Mahabubabad"}},{"type":"Feature","geometry":{"type":"Point","coordinates":[77.98502,16.712]},"properties":{"rid":"36_538","name":"Mahabubnagar"}},{"type":"Feature","geometry":{"type":"Point","coordinates":[79.52269,18.9815]},"properties":{"rid":"36_735","name":"Mancherial"}},{"type":"Feature","geometry":{"type":"Point","coordinates":[78.22252,17.92]},"properties":{"rid":"36_535","name":"Medak"}},{"type":"Feature","geometry":{"type":"Point","coordinates":[78.52551,17.5495]},"properties":{"rid":"36_742","name":"Medchal Malkajgiri"}},{"type":"Feature","geometry":{"type":"Point","coordinates":[78.62686,16.4435]},"properties":{"rid":"36_746","name":"Nagarkurnool"}},{"type":"Feature","geometry":{"type":"Point","coordinates":[79.20636,16.8525]},"properties":{"rid":"36_539","name":"Nalgonda"}},{"type":"Feature","geometry":{"type":"Point","coordinates":[78.36731,19.1165]},"properties":{"rid":"36_734","name":"Nirmal"}},{"type":"Feature","geometry":{"type":"Point","coordinates":[78.19325,18.764]},"properties":{"rid":"36_533","name":"Nizamabad"}},{"type":"Feature","geometry":{"type":"Point","coordinates":[79.48965,18.615]},"properties":{"rid":"36_738","name":"Peddapalli"}},{"type":"Feature","geometry":{"type":"Point","coordinates":[78.758,18.416]},"properties":{"rid":"36_739","name":"Rajanna Sircilla"}},{"type":"Feature","geometry":{"type":"Point","coordinates":[78.40014,17.1275]},"properties":{"rid":"36_537","name":"Ranga Reddy"}},{"type":"Feature","geometry":{"type":"Point","coordinates":[77.82866,17.8545]},"properties":{"rid":"36_740","name":"Sangareddy"}},{"type":"Feature","geometry":{"type":"Point","coordinates":[78.91049,18.0495]},"properties":{"rid":"36_741","name":"Siddipet"}},{"type":"Feature","geometry":{"type":"Point","coordinates":[79.80662,17.0675]},"properties":{"rid":"36_748","name":"Suryapet"}},{"type":"Feature","geometry":{"type":"Point","coordinates":[77.74468,17.27]},"properties":{"rid":"36_743","name":"Vikarabad"}},{"type":"Feature","geometry":{"type":"Point","coordinates":[78.02506,16.2485]},"properties":{"rid":"36_745","name":"Wanaparthy"}},{"type":"Feature","geometry":{"type":"Point","coordinates":[79.82016,17.955]},"properties":{"rid":"36_749","name":"Warangal Rural"}},{"type":"Feature","geometry":{"type":"Point","coordinates":[79.45151,18.0615]},"properties":{"rid":"36_540","name":"Warangal Urban"}},{"type":"Feature","geometry":{"type":"Point","coordinates":[79.07832,17.4415]},"properties":{"rid":"36_747","name":"Yadadri Bhuvanagiri"}},{"type":"Feature","geometry":{"type":"Point","coordinates":[80.55248,17.669]},"properties":{"rid":"36_753","name":"Bhadradri Kothagudem"}},{"type":"Feature","geometry":{"type":"Point","coordinates":[79.94858,18.483]},"properties":{"rid":"36_750","name":"Jayashankar Bhupalapally"}},{"type":"Feature","geometry":{"type":"Point","coordinates":[77.5921,16.695]},"properties":{"rid":"36_781","name":"Narayanpet"}},{"type":"Feature","geometry":{"type":"Point","coordinates":[92.25378,24.1255]},"properties":{"rid":"16_292","name":"North Tripura"}},{"type":"Feature","geometry":{"type":"Point","coordinates":[91.96896,23.835]},"properties":{"rid":"16_291","name":"Dhalai"}},{"type":"Feature","geometry":{"type":"Point","coordinates":[91.28837,23.5495]},"properties":{"rid":"16_707","name":"Sipahijala"}},{"type":"Feature","geometry":{"type":"Point","coordinates":[91.59467,23.55]},"properties":{"rid":"16_709","name":"Gomati"}},{"type":"Feature","geometry":{"type":"Point","coordinates":[91.64204,23.952]},"properties":{"rid":"16_708","name":"Khowai"}},{"type":"Feature","geometry":{"type":"Point","coordinates":[91.39095,23.894]},"properties":{"rid":"16_289","name":"West Tripura"}},{"type":"Feature","geometry":{"type":"Point","coordinates":[91.63405,23.215]},"properties":{"rid":"16_290","name":"South Tripura"}},{"type":"Feature","geometry":{"type":"Point","coordinates":[92.05181,24.187]},"properties":{"rid":"16_710","name":"Unokoti"}},{"type":"Feature","geometry":{"type":"Point","coordinates":[78.58393,31.003]},"properties":{"rid":"05_56","name":"Uttarkashi"}},{"type":"Feature","geometry":{"type":"Point","coordinates":[79.60742,30.4915]},"properties":{"rid":"05_57","name":"Chamoli"}},{"type":"Feature","geometry":{"type":"Point","coordinates":[77.87948,30.4945]},"properties":{"rid":"05_60","name":"Dehradun"}},{"type":"Feature","geometry":{"type":"Point","coordinates":[78.50053,30.4625]},"properties":{"rid":"05_59","name":"Tehri Garhwal"}},{"type":"Feature","geometry":{"type":"Point","coordinates":[79.03045,30.5025]},"properties":{"rid":"05_58","name":"Rudraprayag"}},{"type":"Feature","geometry":{"type":"Point","coordinates":[80.46701,30.1125]},"properties":{"rid":"05_62","name":"Pithoragarh"}},{"type":"Feature","geometry":{"type":"Point","coordinates":[79.91605,30.0105]},"properties":{"rid":"05_63","name":"Bageshwar"}},{"type":"Feature","geometry":{"type":"Point","coordinates":[77.98797,29.9205]},"properties":{"rid":"05_68","name":"Haridwar"}},{"type":"Feature","geometry":{"type":"Point","coordinates":[78.71114,29.83]},"properties":{"rid":"05_61","name":"Pauri Garhwal"}},{"type":"Feature","geometry":{"type":"Point","coordinates":[79.43422,29.7065]},"properties":{"rid":"05_64","name":"Almora"}},{"type":"Feature","geometry":{"type":"Point","coordinates":[79.4202,29.3155]},"properties":{"rid":"05_66","name":"Nainital"}},{"type":"Feature","geometry":{"type":"Point","coordinates":[80.08988,29.2455]},"properties":{"rid":"05_65","name":"Champawat"}},{"type":"Feature","geometry":{"type":"Point","coordinates":[79.43071,29.041]},"properties":{"rid":"05_67","name":"Udham Singh Nagar"}},{"type":"Feature","geometry":{"type":"Point","coordinates":[78.28095,28.7615]},"properties":{"rid":"09_137","name":"Amroha"}},{"type":"Feature","geometry":{"type":"Point","coordinates":[77.9132,28.728]},"properties":{"rid":"09_705","name":"Hapur"}},{"type":"Feature","geometry":{"type":"Point","coordinates":[79.40244,28.4695]},"properties":{"rid":"09_150","name":"Bareilly"}},{"type":"Feature","geometry":{"type":"Point","coordinates":[80.08946,28.4695]},"properties":{"rid":"09_151","name":"Pilibhit"}},{"type":"Feature","geometry":{"type":"Point","coordinates":[77.97623,28.4135]},"properties":{"rid":"09_142","name":"Bulandshahr"}},{"type":"Feature","geometry":{"type":"Point","coordinates":[77.59201,28.3695]},"properties":{"rid":"09_141","name":"Gautam Buddha Nagar"}},{"type":"Feature","geometry":{"type":"Point","coordinates":[80.70052,28.2205]},"properties":{"rid":"09_153","name":"Lakhimpur Kheri"}},{"type":"Feature","geometry":{"type":"Point","coordinates":[79.03752,28.0825]},"properties":{"rid":"09_149","name":"Budaun"}},{"type":"Feature","geometry":{"type":"Point","coordinates":[81.48041,27.751]},"properties":{"rid":"09_180","name":"Bahraich"}},{"type":"Feature","geometry":{"type":"Point","coordinates":[79.76248,27.918]},"properties":{"rid":"09_152","name":"Shahjahanpur"}},{"type":"Feature","geometry":{"type":"Point","coordinates":[78.15103,27.8675]},"properties":{"rid":"09_143","name":"Aligarh"}},{"type":"Feature","geometry":{"type":"Point","coordinates":[78.82777,27.784]},"properties":{"rid":"09_202","name":"Kasganj"}},{"type":"Feature","geometry":{"type":"Point","coordinates":[77.6048,27.599]},"properties":{"rid":"09_145","name":"Mathura"}},{"type":"Feature","geometry":{"type":"Point","coordinates":[81.8973,27.6805]},"properties":{"rid":"09_181","name":"Shrawasti"}},{"type":"Feature","geometry":{"type":"Point","coordinates":[80.86389,27.462]},"properties":{"rid":"09_154","name":"Sitapur"}},{"type":"Feature","geometry":{"type":"Point","coordinates":[78.11914,27.581]},"properties":{"rid":"09_144","name":"Hathras"}},{"type":"Feature","geometry":{"type":"Point","coordinates":[78.74167,27.5335]},"properties":{"rid":"09_201","name":"Etah"}},{"type":"Feature","geometry":{"type":"Point","coordinates":[80.09761,27.329]},"properties":{"rid":"09_155","name":"Hardoi"}},{"type":"Feature","geometry":{"type":"Point","coordinates":[79.48097,27.4115]},"properties":{"rid":"09_159","name":"Farrukhabad"}},{"type":"Feature","geometry":{"type":"Point","coordinates":[78.46877,27.254]},"properties":{"rid":"09_147","name":"Firozabad"}},{"type":"Feature","geometry":{"type":"Point","coordinates":[82.86634,27.28]},"properties":{"rid":"09_184","name":"Siddharthnagar"}},{"type":"Feature","geometry":{"type":"Point","coordinates":[79.03913,27.2205]},"properties":{"rid":"09_148","name":"Mainpuri"}},{"type":"Feature","geometry":{"type":"Point","coordinates":[83.48238,27.1695]},"properties":{"rid":"09_187","name":"Maharajganj"}},{"type":"Feature","geometry":{"type":"Point","coordinates":[77.9478,27.082]},"properties":{"rid":"09_146","name":"Agra"}},{"type":"Feature","geometry":{"type":"Point","coordinates":[81.92446,27.118]},"properties":{"rid":"09_183","name":"Gonda"}},{"type":"Feature","geometry":{"type":"Point","coordinates":[81.34697,26.979]},"properties":{"rid":"09_176","name":"Barabanki"}},{"type":"Feature","geometry":{"type":"Point","coordinates":[83.81293,26.9105]},"properties":{"rid":"09_189","name":"Kushinagar"}},{"type":"Feature","geometry":{"type":"Point","coordinates":[79.68055,27.063]},"properties":{"rid":"09_160","name":"Kannauj"}},{"type":"Feature","geometry":{"type":"Point","coordinates":[80.89859,26.84]},"properties":{"rid":"09_157","name":"Lucknow"}},{"type":"Feature","geometry":{"type":"Point","coordinates":[82.55503,26.84]},"properties":{"rid":"09_185","name":"Basti"}},{"type":"Feature","geometry":{"type":"Point","coordinates":[83.36469,26.708]},"properties":{"rid":"09_188","name":"Gorakhpur"}},{"type":"Feature","geometry":{"type":"Point","coordinates":[83.01711,26.7435]},"properties":{"rid":"09_186","name":"Sant Kabir Nagar"}},{"type":"Feature","geometry":{"type":"Point","coordinates":[80.60718,26.5935]},"properties":{"rid":"09_156","name":"Unnao"}},{"type":"Feature","geometry":{"type":"Point","coordinates":[79.08411,26.7335]},"properties":{"rid":"09_161","name":"Etawah"}},{"type":"Feature","geometry":{"type":"Point","coordinates":[80.29708,26.4115]},"properties":{"rid":"09_164","name":"Kanpur Nagar"}},{"type":"Feature","geometry":{"type":"Point","coordinates":[79.48501,26.6325]},"properties":{"rid":"09_162","name":"Auraiya"}},{"type":"Feature","geometry":{"type":"Point","coordinates":[82.05729,26.6095]},"properties":{"rid":"09_177","name":"Ayodhya"}},{"type":"Feature","geometry":{"type":"Point","coordinates":[79.84756,26.4145]},"properties":{"rid":"09_163","name":"Kanpur Dehat"}},{"type":"Feature","geometry":{"type":"Point","coordinates":[83.76651,26.425]},"properties":{"rid":"09_190","name":"Deoria"}},{"type":"Feature","geometry":{"type":"Point","coordinates":[82.22778,26.27]},"properties":{"rid":"09_179","name":"Sultanpur"}},{"type":"Feature","geometry":{"type":"Point","coordinates":[82.65406,26.4485]},"properties":{"rid":"09_178","name":"Ambedkar Nagar"}},{"type":"Feature","geometry":{"type":"Point","coordinates":[81.11411,26.24]},"properties":{"rid":"09_158","name":"Rae Bareli"}},{"type":"Feature","geometry":{"type":"Point","coordinates":[79.41481,26.1015]},"properties":{"rid":"09_165","name":"Jalaun"}},{"type":"Feature","geometry":{"type":"Point","coordinates":[83.02179,25.9975]},"properties":{"rid":"09_191","name":"Azamgarh"}},{"type":"Feature","geometry":{"type":"Point","coordinates":[83.49689,26.03]},"properties":{"rid":"09_192","name":"Mau"}},{"type":"Feature","geometry":{"type":"Point","coordinates":[80.91029,25.8385]},"properties":{"rid":"09_172","name":"Fatehpur"}},{"type":"Feature","geometry":{"type":"Point","coordinates":[84.12956,25.8695]},"properties":{"rid":"09_193","name":"Ballia"}},{"type":"Feature","geometry":{"type":"Point","coordinates":[82.49883,25.806]},"properties":{"rid":"09_194","name":"Jaunpur"}},{"type":"Feature","geometry":{"type":"Point","coordinates":[79.15969,25.5475]},"properties":{"rid":"09_166","name":"Jhansi"}},{"type":"Feature","geometry":{"type":"Point","coordinates":[80.52997,25.4415]},"properties":{"rid":"09_170","name":"Banda"}},{"type":"Feature","geometry":{"type":"Point","coordinates":[83.50119,25.602]},"properties":{"rid":"09_195","name":"Ghazipur"}},{"type":"Feature","geometry":{"type":"Point","coordinates":[81.45123,25.527]},"properties":{"rid":"09_174","name":"Kaushambi"}},{"type":"Feature","geometry":{"type":"Point","coordinates":[81.89689,25.285]},"properties":{"rid":"09_175","name":"Prayagraj"}},{"type":"Feature","geometry":{"type":"Point","coordinates":[82.92888,25.3585]},"properties":{"rid":"09_197","name":"Varanasi"}},{"type":"Feature","geometry":{"type":"Point","coordinates":[81.12254,25.224]},"properties":{"rid":"09_171","name":"Chitrakoot"}},{"type":"Feature","geometry":{"type":"Point","coordinates":[83.25024,25.149]},"properties":{"rid":"09_196","name":"Chandauli"}},{"type":"Feature","geometry":{"type":"Point","coordinates":[82.50016,25.3585]},"properties":{"rid":"09_198","name":"Bhadohi"}},{"type":"Feature","geometry":{"type":"Point","coordinates":[82.64337,24.9435]},"properties":{"rid":"09_199","name":"Mirzapur"}},{"type":"Feature","geometry":{"type":"Point","coordinates":[78.51512,24.6915]},"properties":{"rid":"09_167","name":"Lalitpur"}},{"type":"Feature","geometry":{"type":"Point","coordinates":[83.067,24.42]},"properties":{"rid":"09_200","name":"Sonbhadra"}},{"type":"Feature","geometry":{"type":"Point","coordinates":[81.62126,26.2995]},"properties":{"rid":"09_706","name":"Amethi"}},{"type":"Feature","geometry":{"type":"Point","coordinates":[77.47039,28.757]},"properties":{"rid":"09_140","name":"Ghaziabad"}},{"type":"Feature","geometry":{"type":"Point","coordinates":[78.55534,28.418]},"properties":{"rid":"09_754","name":"Sambhal"}},{"type":"Feature","geometry":{"type":"Point","coordinates":[79.67675,25.334]},"properties":{"rid":"09_169","name":"Mahoba"}},{"type":"Feature","geometry":{"type":"Point","coordinates":[77.51811,30.0195]},"properties":{"rid":"09_132","name":"Saharanpur"}},{"type":"Feature","geometry":{"type":"Point","coordinates":[78.46796,29.4065]},"properties":{"rid":"09_134","name":"Bijnor"}},{"type":"Feature","geometry":{"type":"Point","coordinates":[77.72766,29.4495]},"properties":{"rid":"09_133","name":"Muzaffarnagar"}},{"type":"Feature","geometry":{"type":"Point","coordinates":[77.30563,29.057]},"properties":{"rid":"09_139","name":"Baghpat"}},{"type":"Feature","geometry":{"type":"Point","coordinates":[77.76471,29.03]},"properties":{"rid":"09_138","name":"Meerut"}},{"type":"Feature","geometry":{"type":"Point","coordinates":[78.79034,28.8725]},"properties":{"rid":"09_135","name":"Moradabad"}},{"type":"Feature","geometry":{"type":"Point","coordinates":[79.18236,28.7985]},"properties":{"rid":"09_136","name":"Rampur"}},{"type":"Feature","geometry":{"type":"Point","coordinates":[77.29539,29.4595]},"properties":{"rid":"09_704","name":"Shamli"}},{"type":"Feature","geometry":{"type":"Point","coordinates":[82.39157,27.454]},"properties":{"rid":"09_182","name":"Balrampur"}},{"type":"Feature","geometry":{"type":"Point","coordinates":[79.83655,25.81]},"properties":{"rid":"09_168","name":"Hamirpur"}},{"type":"Feature","geometry":{"type":"Point","coordinates":[81.84886,25.8875]},"properties":{"rid":"09_173","name":"Pratapgarh"}},{"type":"Feature","geometry":{"type":"Point","coordinates":[88.64127,22.0655]},"properties":{"rid":"19_343","name":"South 24 Parganas"}},{"type":"Feature","geometry":{"type":"Point","coordinates":[87.4126,22.3785]},"properties":{"rid":"19_344","name":"Paschim Medinipur"}},{"type":"Feature","geometry":{"type":"Point","coordinates":[87.79287,22.05]},"properties":{"rid":"19_345","name":"Purba Medinipur"}},{"type":"Feature","geometry":{"type":"Point","coordinates":[87.01175,22.363]},"properties":{"rid":"19_776","name":"Jhargram"}},{"type":"Feature","geometry":{"type":"Point","coordinates":[88.30653,26.8495]},"properties":{"rid":"19_327","name":"Darjeeling"}},{"type":"Feature","geometry":{"type":"Point","coordinates":[88.73841,26.674]},"properties":{"rid":"19_328","name":"Jalpaiguri"}},{"type":"Feature","geometry":{"type":"Point","coordinates":[88.50244,25.395]},"properties":{"rid":"19_331","name":"Dakshin Dinajpur"}},{"type":"Feature","geometry":{"type":"Point","coordinates":[88.11769,25.1155]},"properties":{"rid":"19_332","name":"Malda"}},{"type":"Feature","geometry":{"type":"Point","coordinates":[88.36941,24.281]},"properties":{"rid":"19_333","name":"Murshidabad"}},{"type":"Feature","geometry":{"type":"Point","coordinates":[87.69559,24.0655]},"properties":{"rid":"19_334","name":"Birbhum"}},{"type":"Feature","geometry":{"type":"Point","coordinates":[88.5541,23.505]},"properties":{"rid":"19_336","name":"Nadia"}},{"type":"Feature","geometry":{"type":"Point","coordinates":[87.92139,23.359]},"properties":{"rid":"19_335","name":"Purba Bardhaman"}},{"type":"Feature","geometry":{"type":"Point","coordinates":[86.31609,23.2085]},"properties":{"rid":"19_340","name":"Purulia"}},{"type":"Feature","geometry":{"type":"Point","coordinates":[87.20845,23.16]},"properties":{"rid":"19_339","name":"Bankura"}},{"type":"Feature","geometry":{"type":"Point","coordinates":[88.64853,22.674]},"properties":{"rid":"19_337","name":"North 24 Parganas"}},{"type":"Feature","geometry":{"type":"Point","coordinates":[88.01893,22.9135]},"properties":{"rid":"19_338","name":"Hooghly"}},{"type":"Feature","geometry":{"type":"Point","coordinates":[88.04208,22.5005]},"properties":{"rid":"19_341","name":"Howrah"}},{"type":"Feature","geometry":{"type":"Point","coordinates":[88.36332,22.595]},"properties":{"rid":"19_342","name":"Kolkata"}},{"type":"Feature","geometry":{"type":"Point","coordinates":[89.45225,26.6385]},"properties":{"rid":"19_774","name":"Alipurduar"}},{"type":"Feature","geometry":{"type":"Point","coordinates":[87.1483,23.6615]},"properties":{"rid":"19_777","name":"Paschim Bardhaman"}},{"type":"Feature","geometry":{"type":"Point","coordinates":[88.64619,27.031]},"properties":{"rid":"19_775","name":"Kalimpong"}},{"type":"Feature","geometry":{"type":"Point","coordinates":[89.42991,26.2705]},"properties":{"rid":"19_329","name":"Cooch Behar"}},{"type":"Feature","geometry":{"type":"Point","coordinates":[87.96266,25.882]},"properties":{"rid":"19_330","name":"Uttar Dinajpur"}}]}