{"type":"FeatureCollection","features":[{"type":"Feature","geometry":{"type":"Point","coordinates":[76.75596,34.6675]},"properties":{"st_code":"01","name":"Jammu & Kashmir"}},{"type":"Feature","geometry":{"type":"Point","coordinates":[77.34947,31.8395]},"properties":{"st_code":"02","name":"Himachal Pradesh"}},{"type":"Feature","geometry":{"type":"Point","coordinates":[75.59672,31.0185]},"properties":{"st_code":"03","name":"Punjab"}},{"type":"Feature","geometry":{"type":"Point","coordinates":[76.78832,30.72]},"properties":{"st_code":"04","name":"Chandigarh"}},{"type":"Feature","geometry":{"type":"Point","coordinates":[79.29576,30.079]},"properties":{"st_code":"05","name":"Uttarakhand"}},{"type":"Feature","geometry":{"type":"Point","coordinates":[76.05303,29.2935]},"properties":{"st_code":"06","name":"Haryana"}},{"type":"Feature","geometry":{"type":"Point","coordinates":[77.12294,28.6455]},"properties":{"st_code":"07","name":"Nct Of Delhi"}},{"type":"Feature","geometry":{"type":"Point","coordinates":[73.81012,26.6335]},"properties":{"st_code":"08","name":"Rajasthan"}},{"type":"Feature","geometry":{"type":"Point","coordinates":[80.801,27.1535]},"properties":{"st_code":"09","name":"Uttar Pradesh"}},{"type":"Feature","geometry":{"type":"Point","coordinates":[86.12695,25.8985]},"properties":{"st_code":"10","name":"Bihar"}},{"type":"Feature","geometry":{"type":"Point","coordinates":[88.44368,27.5915]},"properties":{"st_code":"11","name":"Sikkim"}},{"type":"Feature","geometry":{"type":"Point","coordinates":[94.99745,28.062]},"properties":{"st_code":"12","name":"Arunachal Pradesh"}},{"type":"Feature","geometry":{"type":"Point","coordinates":[94.56657,26.0905]},"properties":{"st_code":"13","name":"Nagaland"}},{"type":"Feature","geometry":{"type":"Point","coordinates":[93.83931,24.7335]},"properties":{"st_code":"14","name":"Manipur"}},{"type":"Feature","geometry":{"type":"Point","coordinates":[92.87638,23.2515]},"properties":{"st_code":"15","name":"Mizoram"}},{"type":"Feature","geometry":{"type":"Point","coordinates":[91.74617,23.745]},"properties":{"st_code":"16","name":"Tripura"}},{"type":"Feature","geometry":{"type":"Point","coordinates":[91.26617,25.578]},"properties":{"st_code":"17","name":"Meghalaya"}},{"type":"Feature","geometry":{"type":"Point","coordinates":[90.76692,26.0515]},"properties":{"st_code":"18","name":"Assam"}},{"type":"Feature","geometry":{"type":"Point","coordinates":[88.09381,24.3915]},"properties":{"st_code":"19","name":"West Bengal"}},{"type":"Feature","geometry":{"type":"Point","coordinates":[85.16273,23.657]},"properties":{"st_code":"20","name":"Jharkhand"}},{"type":"Feature","geometry":{"type":"Point","coordinates":[84.4841,20.193]},"properties":{"st_code":"21","name":"Odisha"}},{"type":"Feature","geometry":{"type":"Point","coordinates":[81.51165,20.9505]},"properties":{"st_code":"22","name":"Chhattisgarh"}},{"type":"Feature","geometry":{"type":"Point","coordinates":[79.40466,23.9695]},"properties":{"st_code":"23","name":"Madhya Pradesh"}},{"type":"Feature","geometry":{"type":"Point","coordinates":[72.00041,22.4115]},"properties":{"st_code":"24","name":"Gujarat"}},{"type":"Feature","geometry":{"type":"Point","coordinates":[72.85411,20.417]},"properties":{"st_code":"25","name":"Daman & Diu"}},{"type":"Feature","geometry":{"type":"Point","coordinates":[73.01347,20.2265]},"properties":{"st_code":"26","name":"Dadra & Nagar Haveli"}},{"type":"Feature","geometry":{"type":"Point","coordinates":[75.3598,18.8105]},"properties":{"st_code":"27","name":"Maharashtra"}},{"type":"Feature","geometry":{"type":"Point","coordinates":[79.36907,16.2495]},"properties":{"st_code":"28","name":"Andhra Pradesh"}},{"type":"Feature","geometry":{"type":"Point","coordinates":[75.53227,15.0155]},"properties":{"st_code":"29","name":"Karnataka"}},{"type":"Feature","geometry":{"type":"Point","coordinates":[74.10106,15.3615]},"properties":{"st_code":"30","name":"Goa"}},{"type":"Feature","geometry":{"type":"Point","coordinates":[73.04,8.305]},"properties":{"st_code":"31","name":"Lakshadweep"}},{"type":"Feature","geometry":{"type":"Point","coordinates":[76.42997,10.54]},"properties":{"st_code":"32","name":"Kerala"}},{"type":"Feature","geometry":{"type":"Point","coordinates":[78.35652,10.8215]},"properties":{"st_code":"33","name":"Tamil Nadu"}},{"type":"Feature","geometry":{"type":"Point","coordinates":[79.7965,10.918]},"properties":{"st_code":"34","name":"Puducherry"}},{"type":"Feature","geometry":{"type":"Point","coordinates":[92.83405,12.9585]},"properties":{"st_code":"35","name":"Andaman & Nicobar Islands"}}]}